; Generated from SVG by svg_to_gcode.py
G21 ; set units to millimeters
G90 ; absolute positioning
G0 Z5.000 F800 ; pen up
G0 X79.246 Y80.159 F3000
G1 Z0.000 F800 ; pen down
G1 X79.246 Y80.007 F1500
G1 X79.246 Y79.855 F1500
G1 X79.246 Y79.703 F1500
G1 X79.246 Y79.550 F1500
G1 X79.246 Y79.398 F1500
G1 X79.246 Y79.246 F1500
G1 X79.246 Y79.094 F1500
G1 X79.094 Y78.942 F1500
G1 X78.942 Y78.942 F1500
G1 X78.942 Y78.790 F1500
G1 X78.790 Y78.638 F1500
G1 X78.638 Y78.638 F1500
G1 X78.485 Y78.638 F1500
G1 X78.333 Y78.638 F1500
G1 X78.181 Y78.638 F1500
G1 X78.029 Y78.638 F1500
G1 X77.877 Y78.485 F1500
G1 X77.725 Y78.485 F1500
G1 X77.573 Y78.485 F1500
G1 X77.420 Y78.485 F1500
G1 X77.268 Y78.485 F1500
G1 X77.116 Y78.485 F1500
G1 X76.964 Y78.485 F1500
G1 X76.812 Y78.485 F1500
G1 X76.812 Y78.333 F1500
G1 X76.660 Y78.181 F1500
G1 X76.508 Y78.181 F1500
G1 X76.355 Y78.181 F1500
G1 X76.203 Y78.181 F1500
G1 X76.051 Y78.181 F1500
G1 X75.899 Y78.181 F1500
G1 X75.899 Y78.029 F1500
G1 X75.747 Y77.877 F1500
G1 X75.595 Y77.877 F1500
G1 X75.443 Y77.877 F1500
G1 X75.290 Y77.877 F1500
G1 X75.138 Y77.877 F1500
G1 X74.986 Y77.877 F1500
G1 X74.834 Y77.877 F1500
G1 X74.682 Y77.877 F1500
G1 X74.530 Y77.877 F1500
G1 X74.378 Y77.877 F1500
G1 X74.378 Y77.725 F1500
G1 X74.225 Y77.573 F1500
G1 X74.073 Y77.573 F1500
G1 X73.921 Y77.573 F1500
G1 X73.769 Y77.573 F1500
G1 X73.617 Y77.573 F1500
G1 X73.465 Y77.573 F1500
G1 X73.313 Y77.573 F1500
G1 X73.160 Y77.573 F1500
G1 X73.160 Y77.420 F1500
G1 X73.008 Y77.268 F1500
G1 X72.856 Y77.268 F1500
G1 X72.704 Y77.268 F1500
G1 X72.552 Y77.268 F1500
G1 X72.552 Y77.116 F1500
G1 X72.400 Y76.964 F1500
G1 X72.248 Y76.964 F1500
G1 X72.095 Y76.964 F1500
G1 X71.943 Y76.964 F1500
G1 X71.943 Y76.812 F1500
G1 X71.791 Y76.660 F1500
G1 X71.639 Y76.660 F1500
G1 X71.487 Y76.660 F1500
G1 X71.335 Y76.660 F1500
G1 X71.335 Y76.508 F1500
G1 X71.183 Y76.355 F1500
G1 X71.030 Y76.355 F1500
G1 X70.878 Y76.355 F1500
G1 X70.726 Y76.355 F1500
G1 X70.574 Y76.203 F1500
G1 X70.422 Y76.203 F1500
G1 X70.270 Y76.203 F1500
G1 X70.118 Y76.203 F1500
G1 X69.965 Y76.203 F1500
G1 X69.813 Y76.203 F1500
G1 X69.813 Y76.051 F1500
G1 X69.661 Y75.899 F1500
G1 X69.509 Y75.899 F1500
G1 X69.357 Y75.899 F1500
G1 X69.205 Y75.899 F1500
G1 X69.053 Y75.899 F1500
G1 X68.900 Y75.899 F1500
G1 X68.900 Y75.747 F1500
G1 X68.748 Y75.595 F1500
G1 X68.596 Y75.595 F1500
G1 X68.444 Y75.595 F1500
G1 X68.292 Y75.595 F1500
G1 X68.140 Y75.595 F1500
G1 X67.988 Y75.595 F1500
G1 X67.988 Y75.443 F1500
G1 X67.835 Y75.290 F1500
G1 X67.683 Y75.290 F1500
G1 X67.531 Y75.290 F1500
G1 X67.379 Y75.290 F1500
G1 X67.227 Y75.290 F1500
G1 X67.075 Y75.290 F1500
G1 X67.075 Y75.138 F1500
G1 X66.923 Y74.986 F1500
G1 X66.770 Y74.986 F1500
G1 X66.618 Y74.986 F1500
G1 X66.466 Y74.986 F1500
G1 X66.466 Y74.834 F1500
G1 X66.314 Y74.682 F1500
G1 X66.162 Y74.682 F1500
G1 X66.010 Y74.682 F1500
G1 X65.858 Y74.682 F1500
G1 X65.705 Y74.682 F1500
G1 X65.553 Y74.682 F1500
G1 X65.553 Y74.530 F1500
G1 X65.401 Y74.378 F1500
G1 X65.249 Y74.378 F1500
G1 X65.097 Y74.378 F1500
G1 X64.945 Y74.378 F1500
G1 X64.945 Y74.225 F1500
G1 X64.793 Y74.073 F1500
G1 X64.640 Y74.073 F1500
G1 X64.488 Y73.921 F1500
G1 X64.336 Y73.921 F1500
G1 X64.184 Y73.921 F1500
G1 X64.032 Y73.921 F1500
G1 X64.032 Y73.769 F1500
G1 X63.880 Y73.617 F1500
G1 X63.728 Y73.617 F1500
G1 X63.728 Y73.465 F1500
G1 X63.575 Y73.313 F1500
G1 X63.423 Y73.313 F1500
G1 X63.423 Y73.160 F1500
G1 X63.271 Y73.008 F1500
G1 X63.119 Y73.008 F1500
G1 X62.967 Y73.008 F1500
G1 X62.815 Y73.008 F1500
G1 X62.815 Y72.856 F1500
G1 X62.663 Y72.704 F1500
G1 X62.510 Y72.704 F1500
G1 X62.510 Y72.552 F1500
G1 X62.358 Y72.400 F1500
G1 X62.206 Y72.400 F1500
G1 X62.206 Y72.248 F1500
G1 X62.054 Y72.095 F1500
G1 X61.902 Y72.095 F1500
G1 X61.750 Y72.095 F1500
G1 X61.598 Y72.095 F1500
G1 X61.598 Y71.943 F1500
G1 X61.445 Y71.791 F1500
G1 X61.293 Y71.791 F1500
G1 X61.141 Y71.639 F1500
G1 X60.989 Y71.639 F1500
G1 X60.989 Y71.487 F1500
G1 X60.837 Y71.335 F1500
G1 X60.685 Y71.335 F1500
G1 X60.685 Y71.183 F1500
G1 X60.533 Y71.030 F1500
G1 X60.380 Y71.030 F1500
G1 X60.228 Y71.030 F1500
G1 X60.076 Y71.030 F1500
G1 X60.076 Y70.878 F1500
G1 X59.924 Y70.726 F1500
G1 X59.772 Y70.726 F1500
G1 X59.772 Y70.574 F1500
G1 X59.620 Y70.422 F1500
G1 X59.467 Y70.422 F1500
G1 X59.315 Y70.422 F1500
G1 X59.163 Y70.422 F1500
G1 X59.163 Y70.270 F1500
G1 X59.011 Y70.118 F1500
G1 X58.859 Y70.118 F1500
G1 X58.859 Y69.965 F1500
G1 X58.707 Y69.813 F1500
G1 X58.555 Y69.813 F1500
G1 X58.555 Y69.661 F1500
G1 X58.402 Y69.509 F1500
G1 X58.250 Y69.509 F1500
G1 X58.098 Y69.509 F1500
G1 X57.946 Y69.509 F1500
G1 X57.794 Y69.357 F1500
G1 X57.642 Y69.357 F1500
G1 X57.642 Y69.205 F1500
G1 X57.490 Y69.053 F1500
G1 X57.337 Y69.053 F1500
G1 X57.337 Y68.900 F1500
G1 X57.185 Y68.748 F1500
G1 X57.033 Y68.748 F1500
G1 X57.033 Y68.596 F1500
G1 X56.881 Y68.444 F1500
G1 X56.729 Y68.444 F1500
G1 X56.729 Y68.292 F1500
G1 X56.729 Y68.140 F1500
G1 X56.729 Y67.988 F1500
G1 X56.577 Y67.835 F1500
G1 X56.425 Y67.835 F1500
G1 X56.425 Y67.683 F1500
G1 X56.425 Y67.531 F1500
G1 X56.425 Y67.379 F1500
G1 X56.272 Y67.227 F1500
G1 X56.120 Y67.227 F1500
G1 X56.120 Y67.075 F1500
G1 X56.120 Y66.923 F1500
G1 X55.968 Y66.770 F1500
G1 X55.816 Y66.770 F1500
G1 X55.816 Y66.618 F1500
G1 X55.664 Y66.466 F1500
G1 X55.512 Y66.466 F1500
G1 X55.512 Y66.314 F1500
G1 X55.512 Y66.162 F1500
G1 X55.512 Y66.010 F1500
G1 X55.512 Y65.858 F1500
G1 X55.512 Y65.705 F1500
G1 X55.360 Y65.553 F1500
G1 X55.207 Y65.553 F1500
G1 X55.207 Y65.401 F1500
G1 X55.207 Y65.249 F1500
G1 X55.207 Y65.097 F1500
G1 X55.207 Y64.945 F1500
G1 X55.207 Y64.793 F1500
G1 X55.207 Y64.640 F1500
G1 X55.207 Y64.488 F1500
G1 X55.207 Y64.336 F1500
G1 X55.055 Y64.184 F1500
G1 X54.903 Y64.184 F1500
G1 X54.903 Y64.032 F1500
G1 X54.903 Y63.880 F1500
G1 X54.903 Y63.728 F1500
G1 X54.903 Y63.575 F1500
G1 X54.903 Y63.423 F1500
G1 X54.903 Y63.271 F1500
G1 X54.903 Y63.119 F1500
G1 X54.751 Y62.967 F1500
G1 X54.599 Y62.967 F1500
G1 X54.599 Y62.815 F1500
G1 X54.599 Y62.663 F1500
G1 X54.599 Y62.510 F1500
G1 X54.599 Y62.358 F1500
G1 X54.599 Y62.206 F1500
G1 X54.599 Y62.054 F1500
G1 X54.599 Y61.902 F1500
G1 X54.599 Y61.750 F1500
G1 X54.447 Y61.598 F1500
G1 X54.295 Y61.598 F1500
G1 X54.295 Y61.445 F1500
G1 X54.295 Y61.293 F1500
G1 X54.295 Y61.141 F1500
G1 X54.295 Y60.989 F1500
G1 X54.295 Y60.837 F1500
G1 X54.142 Y60.685 F1500
G1 X53.990 Y60.685 F1500
G1 X53.990 Y60.533 F1500
G1 X53.990 Y60.380 F1500
G1 X53.990 Y60.228 F1500
G1 X53.990 Y60.076 F1500
G1 X53.838 Y59.924 F1500
G1 X53.686 Y59.924 F1500
G1 X53.686 Y59.772 F1500
G1 X53.686 Y59.620 F1500
G1 X53.686 Y59.467 F1500
G1 X53.686 Y59.315 F1500
G1 X53.686 Y59.163 F1500
G1 X53.534 Y59.011 F1500
G1 X53.382 Y59.011 F1500
G1 X53.382 Y58.859 F1500
G1 X53.382 Y58.707 F1500
G1 X53.382 Y58.555 F1500
G1 X53.382 Y58.402 F1500
G1 X53.382 Y58.250 F1500
G1 X53.230 Y58.098 F1500
G1 X53.077 Y58.098 F1500
G1 X53.077 Y57.946 F1500
G1 X53.077 Y57.794 F1500
G1 X52.925 Y57.642 F1500
G1 X52.773 Y57.642 F1500
G1 X52.773 Y57.490 F1500
G1 X52.773 Y57.337 F1500
G1 X52.773 Y57.185 F1500
G1 X52.773 Y57.033 F1500
G1 X52.773 Y56.881 F1500
G1 X52.773 Y56.729 F1500
G1 X52.773 Y56.577 F1500
G1 X52.621 Y56.425 F1500
G1 X52.469 Y56.425 F1500
G1 X52.469 Y56.272 F1500
G1 X52.469 Y56.120 F1500
G1 X52.469 Y55.968 F1500
G1 X52.469 Y55.816 F1500
G1 X52.469 Y55.664 F1500
G1 X52.469 Y55.512 F1500
G1 X52.469 Y55.360 F1500
G1 X52.469 Y55.207 F1500
G1 X52.317 Y55.055 F1500
G1 X52.165 Y55.055 F1500
G1 X52.165 Y54.903 F1500
G1 X52.165 Y54.751 F1500
G1 X52.165 Y54.599 F1500
G1 X52.165 Y54.447 F1500
G1 X52.165 Y54.295 F1500
G1 X52.012 Y54.142 F1500
G1 X51.860 Y54.142 F1500
G1 X51.860 Y53.990 F1500
G1 X51.860 Y53.838 F1500
G1 X51.860 Y53.686 F1500
G1 X51.860 Y53.534 F1500
G1 X52.012 Y53.534 F1500
G1 X52.165 Y53.382 F1500
G1 X52.165 Y53.230 F1500
G1 X52.165 Y53.077 F1500
G1 X52.165 Y52.925 F1500
G1 X52.317 Y52.925 F1500
G1 X52.469 Y52.925 F1500
G1 X52.621 Y52.925 F1500
G1 X52.773 Y52.773 F1500
G1 X52.773 Y52.621 F1500
G1 X52.925 Y52.621 F1500
G1 X53.077 Y52.469 F1500
G1 X53.077 Y52.317 F1500
G1 X53.230 Y52.317 F1500
G1 X53.382 Y52.317 F1500
G1 X53.534 Y52.317 F1500
G1 X53.686 Y52.165 F1500
G1 X53.686 Y52.012 F1500
G1 X53.686 Y51.860 F1500
G1 X53.686 Y51.708 F1500
G1 X53.686 Y51.556 F1500
G1 X53.686 Y51.404 F1500
G1 X53.686 Y51.252 F1500
G1 X53.838 Y51.252 F1500
G1 X53.990 Y51.100 F1500
G1 X53.990 Y50.947 F1500
G1 X53.990 Y50.795 F1500
G1 X53.990 Y50.643 F1500
G1 X53.990 Y50.491 F1500
G1 X53.990 Y50.339 F1500
G1 X53.990 Y50.187 F1500
G1 X53.990 Y50.035 F1500
G1 X53.990 Y49.882 F1500
G1 X53.990 Y49.730 F1500
G1 X53.990 Y49.578 F1500
G1 X53.990 Y49.426 F1500
G1 X53.990 Y49.274 F1500
G1 X53.990 Y49.122 F1500
G1 X53.990 Y48.970 F1500
G1 X53.990 Y48.817 F1500
G1 X53.990 Y48.665 F1500
G1 X53.990 Y48.513 F1500
G1 X53.990 Y48.361 F1500
G1 X53.990 Y48.209 F1500
G1 X53.990 Y48.057 F1500
G1 X53.990 Y47.905 F1500
G1 X53.990 Y47.752 F1500
G1 X53.990 Y47.600 F1500
G1 X53.990 Y47.448 F1500
G1 X53.990 Y47.296 F1500
G1 X53.990 Y47.144 F1500
G1 X53.990 Y46.992 F1500
G1 X53.990 Y46.840 F1500
G1 X53.990 Y46.687 F1500
G1 X53.990 Y46.535 F1500
G1 X53.990 Y46.383 F1500
G1 X54.142 Y46.383 F1500
G1 X54.295 Y46.231 F1500
G1 X54.295 Y46.079 F1500
G1 X54.295 Y45.927 F1500
G1 X54.295 Y45.775 F1500
G1 X54.295 Y45.622 F1500
G1 X54.295 Y45.470 F1500
G1 X54.295 Y45.318 F1500
G1 X54.295 Y45.166 F1500
G1 X54.295 Y45.014 F1500
G1 X54.295 Y44.862 F1500
G1 X54.295 Y44.710 F1500
G1 X54.295 Y44.557 F1500
G1 X54.447 Y44.557 F1500
G1 X54.599 Y44.405 F1500
G1 X54.599 Y44.253 F1500
G1 X54.599 Y44.101 F1500
G1 X54.599 Y43.949 F1500
G1 X54.599 Y43.797 F1500
G1 X54.751 Y43.797 F1500
G1 X54.903 Y43.645 F1500
G1 X54.903 Y43.492 F1500
G1 X54.903 Y43.340 F1500
G1 X54.903 Y43.188 F1500
G1 X54.903 Y43.036 F1500
G1 X54.903 Y42.884 F1500
G1 X54.903 Y42.732 F1500
G1 X54.903 Y42.580 F1500
G1 X55.055 Y42.580 F1500
G1 X55.207 Y42.427 F1500
G1 X55.207 Y42.275 F1500
G1 X55.207 Y42.123 F1500
G1 X55.207 Y41.971 F1500
G1 X55.207 Y41.819 F1500
G1 X55.207 Y41.667 F1500
G1 X55.207 Y41.515 F1500
G1 X55.207 Y41.362 F1500
G1 X55.207 Y41.210 F1500
G1 X55.207 Y41.058 F1500
G1 X55.207 Y40.906 F1500
G1 X55.207 Y40.754 F1500
G1 X55.207 Y40.602 F1500
G1 X55.207 Y40.450 F1500
G1 X55.207 Y40.297 F1500
G1 X55.207 Y40.145 F1500
G1 X55.207 Y39.993 F1500
G1 X55.207 Y39.841 F1500
G1 X55.207 Y39.689 F1500
G1 X55.207 Y39.537 F1500
G1 X55.207 Y39.385 F1500
G1 X55.207 Y39.232 F1500
G1 X55.207 Y39.080 F1500
G1 X55.207 Y38.928 F1500
G1 X55.207 Y38.776 F1500
G1 X55.207 Y38.624 F1500
G1 X55.207 Y38.472 F1500
G1 X55.207 Y38.320 F1500
G1 X55.207 Y38.167 F1500
G1 X55.207 Y38.015 F1500
G1 X55.207 Y37.863 F1500
G1 X55.207 Y37.711 F1500
G1 X55.207 Y37.559 F1500
G1 X55.207 Y37.407 F1500
G1 X55.207 Y37.254 F1500
G1 X55.207 Y37.102 F1500
G1 X55.207 Y36.950 F1500
G1 X55.207 Y36.798 F1500
G1 X55.207 Y36.646 F1500
G1 X55.207 Y36.494 F1500
G1 X55.207 Y36.342 F1500
G1 X55.207 Y36.189 F1500
G1 X55.207 Y36.037 F1500
G1 X55.055 Y35.885 F1500
G1 X54.903 Y35.885 F1500
G1 X54.903 Y35.733 F1500
G1 X54.903 Y35.581 F1500
G1 X54.903 Y35.429 F1500
G1 X54.903 Y35.277 F1500
G1 X54.903 Y35.124 F1500
G1 X54.903 Y34.972 F1500
G1 X54.903 Y34.820 F1500
G1 X54.903 Y34.668 F1500
G1 X54.903 Y34.516 F1500
G1 X54.903 Y34.364 F1500
G1 X54.903 Y34.212 F1500
G1 X54.903 Y34.059 F1500
G1 X55.055 Y34.059 F1500
G1 X55.207 Y33.907 F1500
G1 X55.207 Y33.755 F1500
G1 X55.207 Y33.603 F1500
G1 X55.207 Y33.451 F1500
G1 X55.360 Y33.451 F1500
G1 X55.512 Y33.299 F1500
G1 X55.512 Y33.147 F1500
G1 X55.512 Y32.994 F1500
G1 X55.664 Y32.994 F1500
G1 X55.816 Y32.842 F1500
G1 X55.816 Y32.690 F1500
G1 X55.816 Y32.538 F1500
G1 X55.816 Y32.386 F1500
G1 X55.816 Y32.234 F1500
G1 X55.816 Y32.082 F1500
G1 X55.816 Y31.929 F1500
G1 X55.816 Y31.777 F1500
G1 X55.816 Y31.625 F1500
G1 X55.816 Y31.473 F1500
G1 X55.816 Y31.321 F1500
G1 X55.816 Y31.169 F1500
G1 X55.816 Y31.017 F1500
G1 X55.816 Y30.864 F1500
G1 X55.664 Y30.712 F1500
G1 X55.512 Y30.712 F1500
G1 X55.512 Y30.560 F1500
G1 X55.512 Y30.408 F1500
G1 X55.512 Y30.256 F1500
G1 X55.512 Y30.104 F1500
G1 X55.512 Y29.952 F1500
G1 X55.512 Y29.799 F1500
G1 X55.512 Y29.647 F1500
G1 X55.512 Y29.495 F1500
G1 X55.360 Y29.343 F1500
G1 X55.207 Y29.343 F1500
G1 X55.207 Y29.191 F1500
G1 X55.207 Y29.039 F1500
G1 X55.207 Y28.887 F1500
G1 X55.207 Y28.734 F1500
G1 X55.207 Y28.582 F1500
G1 X55.207 Y28.430 F1500
G1 X55.207 Y28.278 F1500
G1 X55.207 Y28.126 F1500
G1 X55.055 Y27.974 F1500
G1 X54.903 Y27.974 F1500
G1 X54.903 Y27.822 F1500
G1 X54.903 Y27.669 F1500
G1 X54.903 Y27.517 F1500
G1 X54.903 Y27.365 F1500
G1 X54.903 Y27.213 F1500
G1 X54.751 Y27.061 F1500
G1 X54.599 Y27.061 F1500
G1 X54.599 Y26.909 F1500
G1 X54.599 Y26.757 F1500
G1 X54.599 Y26.604 F1500
G1 X54.599 Y26.452 F1500
G1 X54.599 Y26.300 F1500
G1 X54.447 Y26.148 F1500
G1 X54.295 Y26.148 F1500
G1 X54.142 Y25.996 F1500
G1 X53.990 Y25.996 F1500
G1 X53.990 Y25.844 F1500
G1 X53.990 Y25.692 F1500
G1 X53.990 Y25.539 F1500
G1 X53.838 Y25.387 F1500
G1 X53.686 Y25.387 F1500
G1 X53.686 Y25.235 F1500
G1 X53.686 Y25.083 F1500
G1 X53.686 Y24.931 F1500
G1 X53.686 Y24.779 F1500
G1 X53.686 Y24.627 F1500
G1 X53.534 Y24.474 F1500
G1 X53.382 Y24.474 F1500
G1 X53.382 Y24.322 F1500
G1 X53.230 Y24.170 F1500
G1 X53.077 Y24.170 F1500
G1 X53.077 Y24.018 F1500
G1 X52.925 Y23.866 F1500
G1 X52.773 Y23.866 F1500
G1 X52.621 Y23.714 F1500
G1 X52.469 Y23.714 F1500
G1 X52.317 Y23.866 F1500
G1 X52.165 Y23.866 F1500
G1 X52.012 Y24.018 F1500
G1 X52.012 Y24.170 F1500
G1 X52.012 Y24.322 F1500
G1 X52.012 Y24.474 F1500
G1 X52.012 Y24.627 F1500
G1 X52.012 Y24.779 F1500
G1 X52.012 Y24.931 F1500
G1 X52.012 Y25.083 F1500
G1 X51.860 Y25.083 F1500
G1 X51.708 Y25.235 F1500
G1 X51.708 Y25.387 F1500
G1 X51.708 Y25.539 F1500
G1 X51.708 Y25.692 F1500
G1 X51.708 Y25.844 F1500
G1 X51.708 Y25.996 F1500
G1 X51.556 Y25.996 F1500
G1 X51.404 Y26.148 F1500
G1 X51.404 Y26.300 F1500
G1 X51.404 Y26.452 F1500
G1 X51.404 Y26.604 F1500
G1 X51.404 Y26.757 F1500
G1 X51.404 Y26.909 F1500
G1 X51.404 Y27.061 F1500
G1 X51.404 Y27.213 F1500
G1 X51.404 Y27.365 F1500
G1 X51.404 Y27.517 F1500
G1 X51.404 Y27.669 F1500
G1 X51.252 Y27.669 F1500
G1 X51.100 Y27.822 F1500
G1 X51.100 Y27.974 F1500
G1 X51.100 Y28.126 F1500
G1 X51.100 Y28.278 F1500
G1 X51.100 Y28.430 F1500
G1 X51.100 Y28.582 F1500
G1 X51.100 Y28.734 F1500
G1 X51.100 Y28.887 F1500
G1 X51.100 Y29.039 F1500
G1 X51.100 Y29.191 F1500
G1 X51.100 Y29.343 F1500
G1 X51.100 Y29.495 F1500
G1 X51.100 Y29.647 F1500
G1 X50.947 Y29.647 F1500
G1 X50.795 Y29.799 F1500
G1 X50.795 Y29.952 F1500
G1 X50.795 Y30.104 F1500
G1 X50.795 Y30.256 F1500
G1 X50.795 Y30.408 F1500
G1 X50.795 Y30.560 F1500
G1 X50.795 Y30.712 F1500
G1 X50.795 Y30.864 F1500
G1 X50.795 Y31.017 F1500
G1 X50.643 Y31.017 F1500
G1 X50.491 Y31.169 F1500
G1 X50.491 Y31.321 F1500
G1 X50.491 Y31.473 F1500
G1 X50.491 Y31.625 F1500
G1 X50.339 Y31.625 F1500
G1 X50.187 Y31.777 F1500
G1 X50.187 Y31.929 F1500
G1 X50.035 Y31.929 F1500
G1 X49.882 Y32.082 F1500
G1 X49.882 Y32.234 F1500
G1 X49.882 Y32.386 F1500
G1 X49.882 Y32.538 F1500
G1 X49.882 Y32.690 F1500
G1 X49.882 Y32.842 F1500
G1 X49.730 Y32.842 F1500
G1 X49.578 Y32.994 F1500
G1 X49.578 Y33.147 F1500
G1 X49.578 Y33.299 F1500
G1 X49.578 Y33.451 F1500
G1 X49.578 Y33.603 F1500
G1 X49.578 Y33.755 F1500
G1 X49.578 Y33.907 F1500
G1 X49.426 Y33.907 F1500
G1 X49.274 Y34.059 F1500
G1 X49.274 Y34.212 F1500
G1 X49.122 Y34.212 F1500
G1 X48.970 Y34.364 F1500
G1 X48.970 Y34.516 F1500
G1 X48.817 Y34.516 F1500
G1 X48.665 Y34.668 F1500
G1 X48.665 Y34.820 F1500
G1 X48.665 Y34.972 F1500
G1 X48.665 Y35.124 F1500
G1 X48.665 Y35.277 F1500
G1 X48.665 Y35.429 F1500
G1 X48.665 Y35.581 F1500
G1 X48.513 Y35.581 F1500
G1 X48.361 Y35.733 F1500
G1 X48.361 Y35.885 F1500
G1 X48.209 Y35.885 F1500
G1 X48.057 Y36.037 F1500
G1 X48.057 Y36.189 F1500
G1 X47.905 Y36.189 F1500
G1 X47.752 Y36.342 F1500
G1 X47.752 Y36.494 F1500
G1 X47.752 Y36.646 F1500
G1 X47.752 Y36.798 F1500
G1 X47.600 Y36.798 F1500
G1 X47.448 Y36.950 F1500
G1 X47.448 Y37.102 F1500
G1 X47.448 Y37.254 F1500
G1 X47.448 Y37.407 F1500
G1 X47.448 Y37.559 F1500
G1 X47.296 Y37.559 F1500
G1 X47.144 Y37.711 F1500
G1 X47.144 Y37.863 F1500
G1 X46.992 Y37.863 F1500
G1 X46.840 Y38.015 F1500
G1 X46.840 Y38.167 F1500
G1 X46.687 Y38.167 F1500
G1 X46.535 Y38.167 F1500
G1 X46.383 Y38.167 F1500
G1 X46.231 Y38.320 F1500
G1 X46.231 Y38.472 F1500
G1 X46.231 Y38.624 F1500
G1 X46.231 Y38.776 F1500
G1 X46.231 Y38.928 F1500
G1 X46.231 Y39.080 F1500
G1 X46.079 Y39.080 F1500
G1 X45.927 Y39.232 F1500
G1 X45.927 Y39.385 F1500
G1 X45.927 Y39.537 F1500
G1 X45.927 Y39.689 F1500
G1 X45.927 Y39.841 F1500
G1 X45.927 Y39.993 F1500
G1 X45.927 Y40.145 F1500
G1 X45.927 Y40.297 F1500
G1 X45.927 Y40.450 F1500
G1 X45.927 Y40.602 F1500
G1 X45.927 Y40.754 F1500
G1 X45.927 Y40.906 F1500
G1 X45.927 Y41.058 F1500
G1 X45.927 Y41.210 F1500
G1 X45.927 Y41.362 F1500
G1 X45.927 Y41.515 F1500
G1 X45.927 Y41.667 F1500
G1 X45.927 Y41.819 F1500
G1 X45.927 Y41.971 F1500
G1 X45.927 Y42.123 F1500
G1 X45.927 Y42.275 F1500
G1 X45.927 Y42.427 F1500
G1 X45.927 Y42.580 F1500
G1 X45.927 Y42.732 F1500
G1 X45.927 Y42.884 F1500
G1 X45.927 Y43.036 F1500
G1 X45.927 Y43.188 F1500
G1 X45.927 Y43.340 F1500
G1 X45.927 Y43.492 F1500
G1 X45.927 Y43.645 F1500
G1 X45.927 Y43.797 F1500
G1 X45.927 Y43.949 F1500
G1 X45.927 Y44.101 F1500
G1 X45.927 Y44.253 F1500
G1 X45.927 Y44.405 F1500
G1 X45.927 Y44.557 F1500
G1 X45.927 Y44.710 F1500
G1 X45.775 Y44.710 F1500
G1 X45.622 Y44.862 F1500
G1 X45.622 Y45.014 F1500
G1 X45.470 Y45.014 F1500
G1 X45.318 Y45.166 F1500
G1 X45.318 Y45.318 F1500
G1 X45.166 Y45.318 F1500
G1 X45.014 Y45.318 F1500
G1 X44.862 Y45.318 F1500
G1 X44.710 Y45.318 F1500
G1 X44.557 Y45.318 F1500
G1 X44.405 Y45.470 F1500
G1 X44.405 Y45.622 F1500
G1 X44.253 Y45.622 F1500
G1 X44.101 Y45.622 F1500
G1 X43.949 Y45.622 F1500
G1 X43.797 Y45.775 F1500
G1 X43.797 Y45.927 F1500
G1 X43.645 Y45.927 F1500
G1 X43.492 Y46.079 F1500
G1 X43.492 Y46.231 F1500
G1 X43.340 Y46.231 F1500
G1 X43.188 Y46.383 F1500
G1 X43.188 Y46.535 F1500
G1 X43.036 Y46.535 F1500
G1 X42.884 Y46.535 F1500
G1 X42.732 Y46.535 F1500
G1 X42.580 Y46.687 F1500
G1 X42.427 Y46.687 F1500
G1 X42.275 Y46.840 F1500
G1 X42.275 Y46.992 F1500
G1 X42.123 Y46.992 F1500
G1 X41.971 Y47.144 F1500
G1 X41.971 Y47.296 F1500
G1 X41.971 Y47.448 F1500
G1 X41.971 Y47.600 F1500
G1 X41.819 Y47.600 F1500
G1 X41.667 Y47.752 F1500
G1 X41.667 Y47.905 F1500
G1 X41.515 Y47.905 F1500
G1 X41.362 Y48.057 F1500
G1 X41.362 Y48.209 F1500
G1 X41.362 Y48.361 F1500
G1 X41.362 Y48.513 F1500
G1 X41.210 Y48.513 F1500
G1 X41.058 Y48.665 F1500
G1 X41.058 Y48.817 F1500
G1 X40.906 Y48.817 F1500
G1 X40.754 Y48.970 F1500
G1 X40.602 Y48.970 F1500
G1 X40.450 Y49.122 F1500
G1 X40.450 Y49.274 F1500
G1 X40.297 Y49.274 F1500
G1 X40.145 Y49.274 F1500
G1 X39.993 Y49.274 F1500
G1 X39.993 Y49.122 F1500
G1 X39.841 Y48.970 F1500
G1 X39.689 Y48.970 F1500
G1 X39.537 Y48.817 F1500
G1 X39.385 Y48.817 F1500
G1 X39.232 Y48.817 F1500
G1 X39.080 Y48.817 F1500
G1 X39.080 Y48.665 F1500
G1 X38.928 Y48.513 F1500
G1 X38.776 Y48.513 F1500
G1 X38.776 Y48.361 F1500
G1 X38.624 Y48.209 F1500
G1 X38.472 Y48.209 F1500
G1 X38.472 Y48.057 F1500
G1 X38.320 Y47.905 F1500
G1 X38.167 Y47.905 F1500
G1 X38.167 Y47.752 F1500
G1 X38.167 Y47.600 F1500
G1 X38.167 Y47.448 F1500
G1 X38.167 Y47.296 F1500
G1 X38.167 Y47.144 F1500
G1 X38.015 Y46.992 F1500
G1 X37.863 Y46.992 F1500
G1 X37.863 Y46.840 F1500
G1 X37.711 Y46.687 F1500
G1 X37.559 Y46.687 F1500
G1 X37.407 Y46.535 F1500
G1 X37.254 Y46.535 F1500
G1 X37.254 Y46.383 F1500
G1 X37.102 Y46.231 F1500
G1 X36.950 Y46.231 F1500
G1 X36.950 Y46.079 F1500
G1 X36.950 Y45.927 F1500
G1 X36.950 Y45.775 F1500
G1 X36.798 Y45.622 F1500
G1 X36.646 Y45.622 F1500
G1 X36.646 Y45.470 F1500
G1 X36.646 Y45.318 F1500
G1 X36.646 Y45.166 F1500
G1 X36.646 Y45.014 F1500
G1 X36.646 Y44.862 F1500
G1 X36.494 Y44.710 F1500
G1 X36.342 Y44.710 F1500
G1 X36.189 Y44.710 F1500
G1 X36.037 Y44.710 F1500
G1 X35.885 Y44.710 F1500
G1 X35.733 Y44.710 F1500
G1 X35.581 Y44.710 F1500
G1 X35.429 Y44.710 F1500
G1 X35.277 Y44.862 F1500
G1 X35.277 Y45.014 F1500
G1 X35.124 Y45.014 F1500
G1 X34.972 Y45.014 F1500
G1 X34.820 Y45.014 F1500
G1 X34.668 Y45.166 F1500
G1 X34.668 Y45.318 F1500
G1 X34.516 Y45.318 F1500
G1 X34.364 Y45.318 F1500
G1 X34.212 Y45.318 F1500
G1 X34.059 Y45.470 F1500
G1 X34.059 Y45.622 F1500
G1 X34.059 Y45.775 F1500
G1 X34.059 Y45.927 F1500
G1 X34.059 Y46.079 F1500
G1 X34.059 Y46.231 F1500
G1 X34.212 Y46.383 F1500
G1 X34.364 Y46.383 F1500
G1 X34.364 Y46.535 F1500
G1 X34.364 Y46.687 F1500
G1 X34.364 Y46.840 F1500
G1 X34.364 Y46.992 F1500
G1 X34.516 Y47.144 F1500
G1 X34.668 Y47.144 F1500
G1 X34.668 Y47.296 F1500
G1 X34.668 Y47.448 F1500
G1 X34.668 Y47.600 F1500
G1 X34.820 Y47.752 F1500
G1 X34.972 Y47.752 F1500
G1 X34.972 Y47.905 F1500
G1 X34.972 Y48.057 F1500
G1 X34.972 Y48.209 F1500
G1 X35.124 Y48.361 F1500
G1 X35.277 Y48.361 F1500
G1 X35.277 Y48.513 F1500
G1 X35.277 Y48.665 F1500
G1 X35.277 Y48.817 F1500
G1 X35.429 Y48.970 F1500
G1 X35.581 Y48.970 F1500
G1 X35.733 Y49.122 F1500
G1 X35.885 Y49.122 F1500
G1 X35.885 Y49.274 F1500
G1 X35.885 Y49.426 F1500
G1 X35.885 Y49.578 F1500
G1 X36.037 Y49.730 F1500
G1 X36.189 Y49.730 F1500
G1 X36.189 Y49.882 F1500
G1 X36.189 Y50.035 F1500
G1 X36.189 Y50.187 F1500
G1 X36.189 Y50.339 F1500
G1 X36.189 Y50.491 F1500
G1 X36.342 Y50.643 F1500
G1 X36.494 Y50.643 F1500
G1 X36.494 Y50.795 F1500
G1 X36.494 Y50.947 F1500
G1 X36.494 Y51.100 F1500
G1 X36.494 Y51.252 F1500
G1 X36.494 Y51.404 F1500
G1 X36.494 Y51.556 F1500
G1 X36.494 Y51.708 F1500
G1 X36.494 Y51.860 F1500
G1 X36.494 Y52.012 F1500
G1 X36.494 Y52.165 F1500
G1 X36.494 Y52.317 F1500
G1 X36.494 Y52.469 F1500
G1 X36.494 Y52.621 F1500
G1 X36.494 Y52.773 F1500
G1 X36.646 Y52.925 F1500
G1 X36.798 Y52.925 F1500
G1 X36.798 Y53.077 F1500
G1 X36.798 Y53.230 F1500
G1 X36.798 Y53.382 F1500
G1 X36.798 Y53.534 F1500
G1 X36.798 Y53.686 F1500
G1 X36.798 Y53.838 F1500
G1 X36.950 Y53.990 F1500
G1 X37.102 Y53.990 F1500
G1 X37.102 Y54.142 F1500
G1 X37.102 Y54.295 F1500
G1 X37.102 Y54.447 F1500
G1 X37.102 Y54.599 F1500
G1 X37.102 Y54.751 F1500
G1 X37.102 Y54.903 F1500
G1 X37.102 Y55.055 F1500
G1 X37.254 Y55.207 F1500
G1 X37.407 Y55.207 F1500
G1 X37.407 Y55.360 F1500
G1 X37.407 Y55.512 F1500
G1 X37.407 Y55.664 F1500
G1 X37.407 Y55.816 F1500
G1 X37.407 Y55.968 F1500
G1 X37.407 Y56.120 F1500
G1 X37.407 Y56.272 F1500
G1 X37.407 Y56.425 F1500
G1 X37.407 Y56.577 F1500
G1 X37.407 Y56.729 F1500
G1 X37.407 Y56.881 F1500
G1 X37.407 Y57.033 F1500
G1 X37.407 Y57.185 F1500
G1 X37.407 Y57.337 F1500
G1 X37.407 Y57.490 F1500
G1 X37.407 Y57.642 F1500
G1 X37.407 Y57.794 F1500
G1 X37.407 Y57.946 F1500
G1 X37.407 Y58.098 F1500
G1 X37.407 Y58.250 F1500
G1 X37.407 Y58.402 F1500
G1 X37.407 Y58.555 F1500
G1 X37.407 Y58.707 F1500
G1 X37.407 Y58.859 F1500
G1 X37.407 Y59.011 F1500
G1 X37.407 Y59.163 F1500
G1 X37.407 Y59.315 F1500
G1 X37.407 Y59.467 F1500
G1 X37.407 Y59.620 F1500
G1 X37.407 Y59.772 F1500
G1 X37.407 Y59.924 F1500
G1 X37.407 Y60.076 F1500
G1 X37.407 Y60.228 F1500
G1 X37.559 Y60.380 F1500
G1 X37.711 Y60.380 F1500
G1 X37.711 Y60.533 F1500
G1 X37.711 Y60.685 F1500
G1 X37.711 Y60.837 F1500
G1 X37.711 Y60.989 F1500
G1 X37.711 Y61.141 F1500
G1 X37.711 Y61.293 F1500
G1 X37.863 Y61.445 F1500
G1 X38.015 Y61.445 F1500
G1 X38.015 Y61.598 F1500
G1 X38.015 Y61.750 F1500
G1 X38.015 Y61.902 F1500
G1 X38.015 Y62.054 F1500
G1 X38.015 Y62.206 F1500
G1 X38.015 Y62.358 F1500
G1 X38.015 Y62.510 F1500
G1 X38.167 Y62.663 F1500
G1 X38.320 Y62.663 F1500
G1 X38.320 Y62.815 F1500
G1 X38.320 Y62.967 F1500
G1 X38.320 Y63.119 F1500
G1 X38.320 Y63.271 F1500
G1 X38.320 Y63.423 F1500
G1 X38.320 Y63.575 F1500
G1 X38.320 Y63.728 F1500
G1 X38.320 Y63.880 F1500
G1 X38.167 Y63.880 F1500
G1 X38.015 Y64.032 F1500
G1 X38.015 Y64.184 F1500
G1 X38.015 Y64.336 F1500
G1 X38.015 Y64.488 F1500
G1 X38.167 Y64.640 F1500
G1 X38.320 Y64.640 F1500
G1 X38.320 Y64.793 F1500
G1 X38.320 Y64.945 F1500
G1 X38.320 Y65.097 F1500
G1 X38.320 Y65.249 F1500
G1 X38.472 Y65.401 F1500
G1 X38.624 Y65.401 F1500
G1 X38.624 Y65.553 F1500
G1 X38.624 Y65.705 F1500
G1 X38.624 Y65.858 F1500
G1 X38.776 Y66.010 F1500
G1 X38.928 Y66.010 F1500
G1 X38.928 Y66.162 F1500
G1 X38.928 Y66.314 F1500
G1 X38.928 Y66.466 F1500
G1 X38.928 Y66.618 F1500
G1 X38.928 Y66.770 F1500
G1 X38.928 Y66.923 F1500
G1 X38.928 Y67.075 F1500
G1 X39.080 Y67.227 F1500
G1 X39.232 Y67.227 F1500
G1 X39.232 Y67.379 F1500
G1 X39.232 Y67.531 F1500
G1 X39.232 Y67.683 F1500
G1 X39.232 Y67.835 F1500
G1 X39.385 Y67.988 F1500
G1 X39.537 Y67.988 F1500
G1 X39.537 Y68.140 F1500
G1 X39.537 Y68.292 F1500
G1 X39.537 Y68.444 F1500
G1 X39.537 Y68.596 F1500
G1 X39.537 Y68.748 F1500
G1 X39.537 Y68.900 F1500
G1 X39.537 Y69.053 F1500
G1 X39.689 Y69.205 F1500
G1 X39.841 Y69.205 F1500
G1 X39.841 Y69.357 F1500
G1 X39.841 Y69.509 F1500
G1 X39.841 Y69.661 F1500
G1 X39.841 Y69.813 F1500
G1 X39.841 Y69.965 F1500
G1 X39.841 Y70.118 F1500
G1 X39.841 Y70.270 F1500
G1 X39.841 Y70.422 F1500
G1 X39.689 Y70.422 F1500
G1 X39.537 Y70.574 F1500
G1 X39.537 Y70.726 F1500
G1 X39.537 Y70.878 F1500
G1 X39.537 Y71.030 F1500
G1 X39.537 Y71.183 F1500
G1 X39.537 Y71.335 F1500
G1 X39.537 Y71.487 F1500
G1 X39.537 Y71.639 F1500
G1 X39.537 Y71.791 F1500
G1 X39.537 Y71.943 F1500
G1 X39.537 Y72.095 F1500
G1 X39.537 Y72.248 F1500
G1 X39.537 Y72.400 F1500
G1 X39.537 Y72.552 F1500
G1 X39.537 Y72.704 F1500
G1 X39.385 Y72.704 F1500
G1 X39.232 Y72.856 F1500
G1 X39.232 Y73.008 F1500
G1 X39.232 Y73.160 F1500
G1 X39.232 Y73.313 F1500
G1 X39.232 Y73.465 F1500
G1 X39.232 Y73.617 F1500
G1 X39.232 Y73.769 F1500
G1 X39.232 Y73.921 F1500
G1 X39.232 Y74.073 F1500
G1 X39.232 Y74.225 F1500
G1 X39.232 Y74.378 F1500
G1 X39.232 Y74.530 F1500
G1 X39.232 Y74.682 F1500
G1 X39.385 Y74.834 F1500
G1 X39.537 Y74.834 F1500
G1 X39.689 Y74.834 F1500
G1 X39.841 Y74.834 F1500
G1 X39.841 Y74.986 F1500
G1 X39.993 Y75.138 F1500
G1 X40.145 Y75.138 F1500
G1 X40.297 Y75.138 F1500
G1 X40.450 Y75.138 F1500
G1 X40.602 Y75.138 F1500
G1 X40.754 Y75.138 F1500
G1 X40.906 Y75.138 F1500
G1 X41.058 Y75.138 F1500
G1 X41.058 Y75.290 F1500
G1 X41.210 Y75.443 F1500
G1 X41.362 Y75.443 F1500
G1 X41.515 Y75.443 F1500
G1 X41.667 Y75.443 F1500
G1 X41.667 Y75.595 F1500
G1 X41.667 Y75.747 F1500
G1 X41.667 Y75.899 F1500
G1 X41.667 Y76.051 F1500
G1 X41.667 Y76.203 F1500
G1 X41.667 Y76.355 F1500
G1 X41.667 Y76.508 F1500
G1 X41.667 Y76.660 F1500
G1 X41.667 Y76.812 F1500
G1 X41.667 Y76.964 F1500
G1 X41.515 Y76.964 F1500
G1 X41.362 Y77.116 F1500
G1 X41.362 Y77.268 F1500
G1 X41.362 Y77.420 F1500
G1 X41.362 Y77.573 F1500
G1 X41.362 Y77.725 F1500
G1 X41.362 Y77.877 F1500
G1 X41.210 Y77.877 F1500
G1 X41.058 Y77.877 F1500
G1 X40.906 Y77.877 F1500
G1 X40.754 Y77.877 F1500
G1 X40.602 Y77.877 F1500
G1 X40.450 Y78.029 F1500
G1 X40.450 Y78.181 F1500
G1 X40.297 Y78.181 F1500
G1 X40.297 Y78.029 F1500
G1 X40.145 Y77.877 F1500
G1 X39.993 Y77.877 F1500
G1 X39.841 Y77.877 F1500
G1 X39.689 Y77.877 F1500
G1 X39.537 Y77.877 F1500
G1 X39.385 Y77.877 F1500
G1 X39.385 Y77.725 F1500
G1 X39.232 Y77.573 F1500
G1 X39.080 Y77.573 F1500
G1 X39.080 Y77.420 F1500
G1 X38.928 Y77.268 F1500
G1 X38.776 Y77.268 F1500
G1 X38.776 Y77.116 F1500
G1 X38.624 Y76.964 F1500
G1 X38.472 Y76.964 F1500
G1 X38.472 Y76.812 F1500
G1 X38.320 Y76.660 F1500
G1 X38.167 Y76.660 F1500
G1 X38.015 Y76.660 F1500
G1 X37.863 Y76.660 F1500
G1 X37.863 Y76.508 F1500
G1 X37.863 Y76.355 F1500
G1 X37.711 Y76.203 F1500
G1 X37.559 Y76.203 F1500
G1 X37.559 Y76.051 F1500
G1 X37.559 Y75.899 F1500
G1 X37.559 Y75.747 F1500
G1 X37.559 Y75.595 F1500
G1 X37.559 Y75.443 F1500
G1 X37.559 Y75.290 F1500
G1 X37.559 Y75.138 F1500
G1 X37.559 Y74.986 F1500
G1 X37.559 Y74.834 F1500
G1 X37.711 Y74.834 F1500
G1 X37.863 Y74.682 F1500
G1 X37.863 Y74.530 F1500
G1 X38.015 Y74.530 F1500
G1 X38.167 Y74.378 F1500
G1 X38.167 Y74.225 F1500
G1 X38.015 Y74.073 F1500
G1 X37.863 Y74.073 F1500
G1 X37.711 Y74.073 F1500
G1 X37.559 Y74.073 F1500
G1 X37.407 Y74.073 F1500
G1 X37.254 Y74.073 F1500
G1 X37.102 Y74.073 F1500
G1 X36.950 Y74.073 F1500
G1 X36.798 Y74.073 F1500
G1 X36.646 Y74.073 F1500
G1 X36.494 Y73.921 F1500
G1 X36.342 Y73.921 F1500
G1 X36.342 Y73.769 F1500
G1 X36.342 Y73.617 F1500
G1 X36.342 Y73.465 F1500
G1 X36.342 Y73.313 F1500
G1 X36.342 Y73.160 F1500
G1 X36.189 Y73.008 F1500
G1 X36.037 Y73.008 F1500
G1 X36.037 Y72.856 F1500
G1 X36.037 Y72.704 F1500
G1 X36.037 Y72.552 F1500
G1 X35.885 Y72.400 F1500
G1 X35.733 Y72.400 F1500
G1 X35.733 Y72.248 F1500
G1 X35.581 Y72.095 F1500
G1 X35.429 Y72.095 F1500
G1 X35.429 Y71.943 F1500
G1 X35.277 Y71.791 F1500
G1 X35.124 Y71.791 F1500
G1 X35.124 Y71.639 F1500
G1 X35.124 Y71.487 F1500
G1 X34.972 Y71.335 F1500
G1 X34.820 Y71.335 F1500
G1 X34.820 Y71.183 F1500
G1 X34.668 Y71.030 F1500
G1 X34.516 Y71.030 F1500
G1 X34.516 Y70.878 F1500
G1 X34.364 Y70.726 F1500
G1 X34.212 Y70.726 F1500
G1 X34.212 Y70.574 F1500
G1 X34.212 Y70.422 F1500
G1 X34.212 Y70.270 F1500
G1 X34.059 Y70.118 F1500
G1 X33.907 Y70.118 F1500
G1 X33.907 Y69.965 F1500
G1 X33.755 Y69.813 F1500
G1 X33.603 Y69.813 F1500
G1 X33.603 Y69.661 F1500
G1 X33.603 Y69.509 F1500
G1 X33.451 Y69.357 F1500
G1 X33.299 Y69.357 F1500
G1 X33.299 Y69.205 F1500
G1 X33.299 Y69.053 F1500
G1 X33.299 Y68.900 F1500
G1 X33.147 Y68.748 F1500
G1 X32.994 Y68.748 F1500
G1 X32.994 Y68.596 F1500
G1 X32.994 Y68.444 F1500
G1 X32.994 Y68.292 F1500
G1 X32.842 Y68.140 F1500
G1 X32.690 Y68.140 F1500
G1 X32.690 Y67.988 F1500
G1 X32.538 Y67.835 F1500
G1 X32.386 Y67.835 F1500
G1 X32.386 Y67.683 F1500
G1 X32.386 Y67.531 F1500
G1 X32.386 Y67.379 F1500
G1 X32.386 Y67.227 F1500
G1 X32.234 Y67.075 F1500
G1 X32.082 Y67.075 F1500
G1 X32.082 Y66.923 F1500
G1 X32.082 Y66.770 F1500
G1 X32.082 Y66.618 F1500
G1 X32.082 Y66.466 F1500
G1 X32.082 Y66.314 F1500
G1 X31.929 Y66.162 F1500
G1 X31.777 Y66.162 F1500
G1 X31.777 Y66.010 F1500
G1 X31.777 Y65.858 F1500
G1 X31.777 Y65.705 F1500
G1 X31.625 Y65.553 F1500
G1 X31.473 Y65.553 F1500
G1 X31.473 Y65.401 F1500
G1 X31.473 Y65.249 F1500
G1 X31.473 Y65.097 F1500
G1 X31.321 Y64.945 F1500
G1 X31.169 Y64.945 F1500
G1 X31.169 Y64.793 F1500
G1 X31.169 Y64.640 F1500
G1 X31.169 Y64.488 F1500
G1 X31.169 Y64.336 F1500
G1 X31.017 Y64.184 F1500
G1 X30.864 Y64.184 F1500
G1 X30.864 Y64.032 F1500
G1 X30.864 Y63.880 F1500
G1 X30.864 Y63.728 F1500
G1 X30.712 Y63.575 F1500
G1 X30.560 Y63.575 F1500
G1 X30.560 Y63.423 F1500
G1 X30.560 Y63.271 F1500
G1 X30.560 Y63.119 F1500
G1 X30.408 Y62.967 F1500
G1 X30.256 Y62.967 F1500
G1 X30.256 Y62.815 F1500
G1 X30.104 Y62.663 F1500
G1 X29.952 Y62.663 F1500
G1 X29.952 Y62.510 F1500
G1 X29.952 Y62.358 F1500
G1 X29.799 Y62.206 F1500
G1 X29.647 Y62.206 F1500
G1 X29.647 Y62.054 F1500
G1 X29.647 Y61.902 F1500
G1 X29.647 Y61.750 F1500
G1 X29.647 Y61.598 F1500
G1 X29.647 Y61.445 F1500
G1 X29.495 Y61.293 F1500
G1 X29.343 Y61.293 F1500
G1 X29.343 Y61.141 F1500
G1 X29.343 Y60.989 F1500
G1 X29.343 Y60.837 F1500
G1 X29.191 Y60.685 F1500
G1 X29.039 Y60.685 F1500
G1 X29.039 Y60.533 F1500
G1 X28.887 Y60.380 F1500
G1 X28.734 Y60.380 F1500
G1 X28.734 Y60.228 F1500
G1 X28.734 Y60.076 F1500
G1 X28.734 Y59.924 F1500
G1 X28.734 Y59.772 F1500
G1 X28.582 Y59.620 F1500
G1 X28.430 Y59.620 F1500
G1 X28.430 Y59.467 F1500
G1 X28.430 Y59.315 F1500
G1 X28.430 Y59.163 F1500
G1 X28.278 Y59.011 F1500
G1 X28.126 Y59.011 F1500
G1 X28.126 Y58.859 F1500
G1 X28.126 Y58.707 F1500
G1 X28.126 Y58.555 F1500
G1 X27.974 Y58.402 F1500
G1 X27.822 Y58.402 F1500
G1 X27.822 Y58.250 F1500
G1 X27.822 Y58.098 F1500
G1 X27.669 Y57.946 F1500
G1 X27.517 Y57.946 F1500
G1 X27.517 Y57.794 F1500
G1 X27.517 Y57.642 F1500
G1 X27.517 Y57.490 F1500
G1 X27.517 Y57.337 F1500
G1 X27.517 Y57.185 F1500
G1 X27.365 Y57.033 F1500
G1 X27.213 Y57.033 F1500
G1 X27.213 Y56.881 F1500
G1 X27.213 Y56.729 F1500
G1 X27.213 Y56.577 F1500
G1 X27.213 Y56.425 F1500
G1 X27.213 Y56.272 F1500
G1 X27.213 Y56.120 F1500
G1 X27.213 Y55.968 F1500
G1 X27.061 Y55.816 F1500
G1 X26.909 Y55.816 F1500
G1 X26.909 Y55.664 F1500
G1 X26.909 Y55.512 F1500
G1 X26.909 Y55.360 F1500
G1 X26.909 Y55.207 F1500
G1 X26.909 Y55.055 F1500
G1 X26.909 Y54.903 F1500
G1 X26.757 Y54.751 F1500
G1 X26.604 Y54.751 F1500
G1 X26.604 Y54.599 F1500
G1 X26.604 Y54.447 F1500
G1 X26.604 Y54.295 F1500
G1 X26.452 Y54.142 F1500
G1 X26.300 Y54.142 F1500
G1 X26.300 Y53.990 F1500
G1 X26.300 Y53.838 F1500
G1 X26.300 Y53.686 F1500
G1 X26.300 Y53.534 F1500
G1 X26.148 Y53.382 F1500
G1 X25.996 Y53.382 F1500
G1 X25.996 Y53.230 F1500
G1 X25.996 Y53.077 F1500
G1 X25.996 Y52.925 F1500
G1 X25.996 Y52.773 F1500
G1 X25.996 Y52.621 F1500
G1 X25.996 Y52.469 F1500
G1 X25.996 Y52.317 F1500
G1 X25.996 Y52.165 F1500
G1 X25.996 Y52.012 F1500
G1 X25.844 Y51.860 F1500
G1 X25.692 Y51.860 F1500
G1 X25.692 Y51.708 F1500
G1 X25.692 Y51.556 F1500
G1 X25.692 Y51.404 F1500
G1 X25.692 Y51.252 F1500
G1 X25.692 Y51.100 F1500
G1 X25.692 Y50.947 F1500
G1 X25.692 Y50.795 F1500
G1 X25.692 Y50.643 F1500
G1 X25.539 Y50.491 F1500
G1 X25.387 Y50.491 F1500
G1 X25.387 Y50.339 F1500
G1 X25.387 Y50.187 F1500
G1 X25.387 Y50.035 F1500
G1 X25.387 Y49.882 F1500
G1 X25.387 Y49.730 F1500
G1 X25.387 Y49.578 F1500
G1 X25.387 Y49.426 F1500
G1 X25.387 Y49.274 F1500
G1 X25.387 Y49.122 F1500
G1 X25.387 Y48.970 F1500
G1 X25.235 Y48.817 F1500
G1 X25.083 Y48.817 F1500
G1 X25.083 Y48.665 F1500
G1 X25.083 Y48.513 F1500
G1 X25.083 Y48.361 F1500
G1 X25.083 Y48.209 F1500
G1 X25.083 Y48.057 F1500
G1 X25.083 Y47.905 F1500
G1 X25.083 Y47.752 F1500
G1 X25.083 Y47.600 F1500
G1 X25.083 Y47.448 F1500
G1 X25.083 Y47.296 F1500
G1 X25.083 Y47.144 F1500
G1 X24.931 Y46.992 F1500
G1 X24.779 Y46.992 F1500
G1 X24.779 Y46.840 F1500
G1 X24.779 Y46.687 F1500
G1 X24.779 Y46.535 F1500
G1 X24.779 Y46.383 F1500
G1 X24.779 Y46.231 F1500
G1 X24.779 Y46.079 F1500
G1 X24.779 Y45.927 F1500
G1 X24.779 Y45.775 F1500
G1 X24.779 Y45.622 F1500
G1 X24.779 Y45.470 F1500
G1 X24.779 Y45.318 F1500
G1 X24.779 Y45.166 F1500
G1 X24.627 Y45.014 F1500
G1 X24.474 Y45.014 F1500
G1 X24.474 Y44.862 F1500
G1 X24.474 Y44.710 F1500
G1 X24.474 Y44.557 F1500
G1 X24.474 Y44.405 F1500
G1 X24.322 Y44.253 F1500
G1 X24.170 Y44.253 F1500
G1 X24.170 Y44.101 F1500
G1 X24.170 Y43.949 F1500
G1 X24.170 Y43.797 F1500
G1 X24.018 Y43.645 F1500
G1 X23.866 Y43.645 F1500
G1 X23.866 Y43.492 F1500
G1 X23.866 Y43.340 F1500
G1 X23.866 Y43.188 F1500
G1 X23.714 Y43.036 F1500
G1 X23.562 Y43.036 F1500
G1 X23.562 Y42.884 F1500
G1 X23.562 Y42.732 F1500
G1 X23.562 Y42.580 F1500
G1 X23.562 Y42.427 F1500
G1 X23.562 Y42.275 F1500
G1 X23.409 Y42.123 F1500
G1 X23.257 Y42.123 F1500
G1 X23.105 Y41.971 F1500
G1 X22.953 Y41.971 F1500
G1 X22.953 Y41.819 F1500
G1 X22.801 Y41.667 F1500
G1 X22.649 Y41.667 F1500
G1 X22.649 Y41.515 F1500
G1 X22.649 Y41.362 F1500
G1 X22.649 Y41.210 F1500
G1 X22.497 Y41.058 F1500
G1 X22.344 Y41.058 F1500
G1 X22.344 Y40.906 F1500
G1 X22.192 Y40.754 F1500
G1 X22.040 Y40.754 F1500
G1 X22.040 Y40.602 F1500
G1 X21.888 Y40.450 F1500
G1 X21.736 Y40.450 F1500
G1 X21.736 Y40.297 F1500
G1 X21.584 Y40.145 F1500
G1 X21.432 Y40.145 F1500
G1 X21.432 Y39.993 F1500
G1 X21.279 Y39.841 F1500
G1 X21.127 Y39.841 F1500
G1 X20.975 Y39.689 F1500
G1 X20.823 Y39.689 F1500
G1 X20.671 Y39.689 F1500
G1 X20.519 Y39.689 F1500
G1 X20.519 Y39.537 F1500
G1 X20.367 Y39.385 F1500
G1 X20.214 Y39.385 F1500
G1 X20.214 Y39.232 F1500
G1 X20.062 Y39.080 F1500
G1 X19.910 Y39.080 F1500
G1 X19.758 Y39.080 F1500
G1 X19.606 Y39.080 F1500
G1 X19.606 Y38.928 F1500
G1 X19.454 Y38.776 F1500
G1 X19.302 Y38.776 F1500
G1 X19.302 Y38.624 F1500
G1 X19.149 Y38.472 F1500
G1 X18.997 Y38.472 F1500
G1 X18.845 Y38.472 F1500
G1 X18.693 Y38.472 F1500
G1 X18.693 Y38.320 F1500
G1 X18.541 Y38.167 F1500
G1 X18.389 Y38.167 F1500
G1 X18.389 Y38.015 F1500
G1 X18.237 Y37.863 F1500
G1 X18.084 Y37.863 F1500
G1 X17.932 Y37.863 F1500
G1 X17.780 Y37.863 F1500
G1 X17.628 Y37.863 F1500
G1 X17.476 Y37.863 F1500
G1 X17.476 Y37.711 F1500
G1 X17.324 Y37.559 F1500
G1 X17.172 Y37.559 F1500
G1 X17.019 Y37.559 F1500
G1 X16.867 Y37.559 F1500
G1 X16.715 Y37.407 F1500
G1 X16.563 Y37.407 F1500
G1 X16.563 Y37.254 F1500
G1 X16.411 Y37.102 F1500
G1 X16.259 Y37.102 F1500
G1 X16.259 Y36.950 F1500
G1 X16.107 Y36.798 F1500
G1 X15.954 Y36.798 F1500
G1 X15.954 Y36.646 F1500
G1 X15.802 Y36.494 F1500
G1 X15.650 Y36.494 F1500
G1 X15.650 Y36.342 F1500
G1 X15.498 Y36.189 F1500
G1 X15.346 Y36.189 F1500
G1 X15.346 Y36.037 F1500
G1 X15.194 Y35.885 F1500
G1 X15.041 Y35.885 F1500
G1 X15.041 Y35.733 F1500
G1 X14.889 Y35.581 F1500
G1 X14.737 Y35.581 F1500
G1 X14.737 Y35.429 F1500
G1 X14.737 Y35.277 F1500
G1 X14.585 Y35.124 F1500
G1 X14.433 Y35.124 F1500
G1 X14.433 Y34.972 F1500
G1 X14.281 Y34.820 F1500
G1 X14.129 Y34.820 F1500
G1 X14.129 Y34.668 F1500
G1 X13.976 Y34.516 F1500
G1 X13.824 Y34.516 F1500
G1 X13.824 Y34.364 F1500
G1 X13.672 Y34.212 F1500
G1 X13.520 Y34.212 F1500
G1 X13.520 Y34.059 F1500
G1 X13.368 Y33.907 F1500
G1 X13.216 Y33.907 F1500
G1 X13.064 Y33.907 F1500
G1 X12.911 Y33.907 F1500
G1 X12.911 Y33.755 F1500
G1 X12.759 Y33.603 F1500
G1 X12.607 Y33.603 F1500
G1 X12.455 Y33.603 F1500
G1 X12.303 Y33.603 F1500
G1 X12.303 Y33.451 F1500
G1 X12.151 Y33.299 F1500
G1 X11.999 Y33.299 F1500
G1 X11.999 Y33.147 F1500
G1 X11.846 Y32.994 F1500
G1 X11.694 Y32.994 F1500
G1 X11.542 Y32.994 F1500
G1 X11.390 Y32.994 F1500
G1 X11.238 Y32.842 F1500
G1 X11.086 Y32.842 F1500
G1 X11.086 Y32.690 F1500
G1 X10.934 Y32.538 F1500
G1 X10.781 Y32.538 F1500
G1 X10.629 Y32.538 F1500
G1 X10.477 Y32.538 F1500
G1 X10.477 Y32.386 F1500
G1 X10.325 Y32.234 F1500
G1 X10.173 Y32.234 F1500
G1 X10.173 Y32.082 F1500
G1 X10.021 Y31.929 F1500
G1 X9.869 Y31.929 F1500
G1 X9.869 Y31.777 F1500
G1 X9.869 Y31.625 F1500
G1 X9.869 Y31.473 F1500
G1 X9.716 Y31.321 F1500
G1 X9.564 Y31.321 F1500
G1 X9.564 Y31.169 F1500
G1 X9.564 Y31.017 F1500
G1 X9.564 Y30.864 F1500
G1 X9.412 Y30.712 F1500
G1 X9.260 Y30.712 F1500
G1 X9.260 Y30.560 F1500
G1 X9.260 Y30.408 F1500
G1 X9.108 Y30.256 F1500
G1 X8.956 Y30.256 F1500
G1 X8.956 Y30.104 F1500
G1 X8.956 Y29.952 F1500
G1 X8.956 Y29.799 F1500
G1 X8.804 Y29.647 F1500
G1 X8.651 Y29.647 F1500
G1 X8.651 Y29.495 F1500
G1 X8.651 Y29.343 F1500
G1 X8.651 Y29.191 F1500
G1 X8.651 Y29.039 F1500
G1 X8.651 Y28.887 F1500
G1 X8.651 Y28.734 F1500
G1 X8.651 Y28.582 F1500
G1 X8.499 Y28.430 F1500
G1 X8.347 Y28.430 F1500
G1 X8.347 Y28.278 F1500
G1 X8.347 Y28.126 F1500
G1 X8.347 Y27.974 F1500
G1 X8.347 Y27.822 F1500
G1 X8.347 Y27.669 F1500
G1 X8.347 Y27.517 F1500
G1 X8.195 Y27.365 F1500
G1 X8.043 Y27.365 F1500
G1 X8.043 Y27.213 F1500
G1 X8.043 Y27.061 F1500
G1 X8.043 Y26.909 F1500
G1 X8.043 Y26.757 F1500
G1 X8.043 Y26.604 F1500
G1 X8.043 Y26.452 F1500
G1 X8.043 Y26.300 F1500
G1 X8.043 Y26.148 F1500
G1 X8.043 Y25.996 F1500
G1 X8.043 Y25.844 F1500
G1 X8.043 Y25.692 F1500
G1 X8.043 Y25.539 F1500
G1 X8.043 Y25.387 F1500
G1 X8.043 Y25.235 F1500
G1 X7.891 Y25.083 F1500
G1 X7.739 Y25.083 F1500
G1 X7.739 Y24.931 F1500
G1 X7.739 Y24.779 F1500
G1 X7.739 Y24.627 F1500
G1 X7.739 Y24.474 F1500
G1 X7.739 Y24.322 F1500
G1 X7.739 Y24.170 F1500
G1 X7.739 Y24.018 F1500
G1 X7.739 Y23.866 F1500
G1 X7.739 Y23.714 F1500
G1 X7.739 Y23.562 F1500
G1 X7.739 Y23.409 F1500
G1 X7.739 Y23.257 F1500
G1 X7.739 Y23.105 F1500
G1 X7.739 Y22.953 F1500
G1 X7.739 Y22.801 F1500
G1 X7.739 Y22.649 F1500
G1 X7.586 Y22.497 F1500
G1 X7.434 Y22.497 F1500
G1 X7.434 Y22.344 F1500
G1 X7.434 Y22.192 F1500
G1 X7.434 Y22.040 F1500
G1 X7.434 Y21.888 F1500
G1 X7.434 Y21.736 F1500
G1 X7.434 Y21.584 F1500
G1 X7.434 Y21.432 F1500
G1 X7.434 Y21.279 F1500
G1 X7.434 Y21.127 F1500
G1 X7.434 Y20.975 F1500
G1 X7.434 Y20.823 F1500
G1 X7.434 Y20.671 F1500
G1 X7.434 Y20.519 F1500
G1 X7.434 Y20.367 F1500
G1 X7.282 Y20.214 F1500
G1 X7.130 Y20.214 F1500
G1 X7.130 Y20.062 F1500
G1 X7.130 Y19.910 F1500
G1 X7.130 Y19.758 F1500
G1 X7.130 Y19.606 F1500
G1 X7.130 Y19.454 F1500
G1 X7.130 Y19.302 F1500
G1 X7.130 Y19.149 F1500
G1 X7.130 Y18.997 F1500
G1 X7.130 Y18.845 F1500
G1 X7.130 Y18.693 F1500
G1 X7.130 Y18.541 F1500
G1 X7.130 Y18.389 F1500
G1 X6.978 Y18.237 F1500
G1 X6.826 Y18.237 F1500
G1 X6.826 Y18.084 F1500
G1 X6.826 Y17.932 F1500
G1 X6.826 Y17.780 F1500
G1 X6.826 Y17.628 F1500
G1 X6.826 Y17.476 F1500
G1 X6.826 Y17.324 F1500
G1 X6.826 Y17.172 F1500
G1 X6.826 Y17.019 F1500
G1 X6.826 Y16.867 F1500
G1 X6.826 Y16.715 F1500
G1 X6.674 Y16.563 F1500
G1 X6.521 Y16.563 F1500
G1 X6.521 Y16.411 F1500
G1 X6.521 Y16.259 F1500
G1 X6.521 Y16.107 F1500
G1 X6.521 Y15.954 F1500
G1 X6.521 Y15.802 F1500
G1 X6.521 Y15.650 F1500
G1 X6.521 Y15.498 F1500
G1 X6.521 Y15.346 F1500
G1 X6.521 Y15.194 F1500
G1 X6.521 Y15.041 F1500
G1 X6.521 Y14.889 F1500
G1 X6.521 Y14.737 F1500
G1 X6.521 Y14.585 F1500
G1 X6.521 Y14.433 F1500
G1 X6.521 Y14.281 F1500
G1 X6.521 Y14.129 F1500
G1 X6.521 Y13.976 F1500
G1 X6.521 Y13.824 F1500
G1 X6.521 Y13.672 F1500
G1 X6.521 Y13.520 F1500
G1 X6.521 Y13.368 F1500
G1 X6.521 Y13.216 F1500
G1 X6.521 Y13.064 F1500
G1 X6.521 Y12.911 F1500
G1 X6.521 Y12.759 F1500
G1 X6.521 Y12.607 F1500
G1 X6.521 Y12.455 F1500
G1 X6.521 Y12.303 F1500
G1 X6.521 Y12.151 F1500
G1 X6.521 Y11.999 F1500
G1 X6.521 Y11.846 F1500
G1 X6.369 Y11.694 F1500
G1 X6.217 Y11.694 F1500
G1 X6.217 Y11.542 F1500
G1 X6.217 Y11.390 F1500
G1 X6.217 Y11.238 F1500
G1 X6.217 Y11.086 F1500
G1 X6.217 Y10.934 F1500
G1 X6.217 Y10.781 F1500
G1 X6.217 Y10.629 F1500
G1 X6.217 Y10.477 F1500
G1 X6.217 Y10.325 F1500
G1 X6.217 Y10.173 F1500
G1 X6.217 Y10.021 F1500
G1 X6.217 Y9.869 F1500
G1 X6.065 Y9.716 F1500
G1 X5.913 Y9.716 F1500
G1 X5.761 Y9.716 F1500
G1 X5.609 Y9.716 F1500
G1 X5.456 Y9.716 F1500
G1 X5.304 Y9.716 F1500
G1 X5.152 Y9.716 F1500
G1 X5.000 Y9.716 F1500
G1 X5.000 Y9.564 F1500
G1 X5.000 Y9.412 F1500
G1 X5.000 Y9.260 F1500
G1 X5.000 Y9.108 F1500
G1 X5.000 Y8.956 F1500
G1 X5.000 Y8.804 F1500
G1 X5.000 Y8.651 F1500
G1 X5.000 Y8.499 F1500
G1 X5.000 Y8.347 F1500
G1 X5.000 Y8.195 F1500
G1 X5.000 Y8.043 F1500
G1 X5.000 Y7.891 F1500
G1 X5.000 Y7.739 F1500
G1 X5.000 Y7.586 F1500
G1 X5.000 Y7.434 F1500
G1 X5.000 Y7.282 F1500
G1 X5.000 Y7.130 F1500
G1 X5.000 Y6.978 F1500
G1 X5.000 Y6.826 F1500
G1 X5.000 Y6.674 F1500
G1 X5.000 Y6.521 F1500
G1 X5.000 Y6.369 F1500
G1 X5.000 Y6.217 F1500
G1 X5.000 Y6.065 F1500
G1 X5.000 Y5.913 F1500
G1 X5.000 Y5.761 F1500
G1 X5.000 Y5.609 F1500
G1 X5.000 Y5.456 F1500
G1 X5.000 Y5.304 F1500
G1 X5.000 Y5.152 F1500
G1 X5.000 Y5.000 F1500
G1 X5.152 Y5.000 F1500
G1 X5.304 Y5.000 F1500
G1 X5.456 Y5.000 F1500
G1 X5.609 Y5.000 F1500
G1 X5.761 Y5.000 F1500
G1 X5.913 Y5.000 F1500
G1 X6.065 Y5.000 F1500
G1 X6.217 Y5.000 F1500
G1 X6.369 Y5.000 F1500
G1 X6.521 Y5.000 F1500
G1 X6.674 Y5.000 F1500
G1 X6.826 Y5.000 F1500
G1 X6.978 Y5.000 F1500
G1 X7.130 Y5.000 F1500
G1 X7.282 Y5.000 F1500
G1 X7.434 Y5.000 F1500
G1 X7.586 Y5.000 F1500
G1 X7.739 Y5.000 F1500
G1 X7.891 Y5.000 F1500
G1 X8.043 Y5.000 F1500
G1 X8.195 Y5.000 F1500
G1 X8.347 Y5.000 F1500
G1 X8.499 Y5.000 F1500
G1 X8.651 Y5.000 F1500
G1 X8.804 Y5.000 F1500
G1 X8.956 Y5.000 F1500
G1 X9.108 Y5.000 F1500
G1 X9.260 Y5.000 F1500
G1 X9.412 Y5.000 F1500
G1 X9.564 Y5.000 F1500
G1 X9.716 Y5.000 F1500
G1 X9.869 Y5.000 F1500
G1 X10.021 Y5.000 F1500
G1 X10.173 Y5.000 F1500
G1 X10.325 Y5.000 F1500
G1 X10.477 Y5.000 F1500
G1 X10.629 Y5.000 F1500
G1 X10.781 Y5.000 F1500
G1 X10.934 Y5.000 F1500
G1 X11.086 Y5.000 F1500
G1 X11.238 Y5.000 F1500
G1 X11.390 Y5.000 F1500
G1 X11.542 Y5.000 F1500
G1 X11.694 Y5.000 F1500
G1 X11.846 Y5.000 F1500
G1 X11.999 Y5.000 F1500
G1 X12.151 Y5.000 F1500
G1 X12.303 Y5.000 F1500
G1 X12.455 Y5.000 F1500
G1 X12.607 Y5.000 F1500
G1 X12.759 Y5.000 F1500
G1 X12.911 Y5.000 F1500
G1 X13.064 Y5.000 F1500
G1 X13.216 Y5.000 F1500
G1 X13.368 Y5.000 F1500
G1 X13.520 Y5.000 F1500
G1 X13.672 Y5.000 F1500
G1 X13.824 Y5.000 F1500
G1 X13.976 Y5.000 F1500
G1 X14.129 Y5.000 F1500
G1 X14.281 Y5.000 F1500
G1 X14.433 Y5.000 F1500
G1 X14.585 Y5.000 F1500
G1 X14.737 Y5.000 F1500
G1 X14.889 Y5.000 F1500
G1 X15.041 Y5.000 F1500
G1 X15.194 Y5.000 F1500
G1 X15.346 Y5.000 F1500
G1 X15.498 Y5.000 F1500
G1 X15.650 Y5.000 F1500
G1 X15.802 Y5.000 F1500
G1 X15.954 Y5.000 F1500
G1 X16.107 Y5.000 F1500
G1 X16.259 Y5.000 F1500
G1 X16.411 Y5.000 F1500
G1 X16.563 Y5.000 F1500
G1 X16.715 Y5.000 F1500
G1 X16.867 Y5.000 F1500
G1 X17.019 Y5.000 F1500
G1 X17.172 Y5.000 F1500
G1 X17.324 Y5.000 F1500
G1 X17.476 Y5.000 F1500
G1 X17.628 Y5.000 F1500
G1 X17.780 Y5.000 F1500
G1 X17.932 Y5.000 F1500
G1 X18.084 Y5.000 F1500
G1 X18.237 Y5.000 F1500
G1 X18.389 Y5.000 F1500
G1 X18.541 Y5.000 F1500
G1 X18.693 Y5.000 F1500
G1 X18.845 Y5.000 F1500
G1 X18.997 Y5.000 F1500
G1 X19.149 Y5.000 F1500
G1 X19.302 Y5.000 F1500
G1 X19.454 Y5.000 F1500
G1 X19.606 Y5.000 F1500
G1 X19.758 Y5.000 F1500
G1 X19.910 Y5.000 F1500
G1 X20.062 Y5.000 F1500
G1 X20.214 Y5.000 F1500
G1 X20.367 Y5.000 F1500
G1 X20.519 Y5.000 F1500
G1 X20.671 Y5.000 F1500
G1 X20.823 Y5.000 F1500
G1 X20.975 Y5.000 F1500
G1 X21.127 Y5.000 F1500
G1 X21.279 Y5.000 F1500
G1 X21.432 Y5.000 F1500
G1 X21.584 Y5.000 F1500
G1 X21.736 Y5.000 F1500
G1 X21.888 Y5.000 F1500
G1 X22.040 Y5.000 F1500
G1 X22.192 Y5.000 F1500
G1 X22.344 Y5.000 F1500
G1 X22.497 Y5.000 F1500
G1 X22.649 Y5.000 F1500
G1 X22.801 Y5.000 F1500
G1 X22.953 Y5.000 F1500
G1 X23.105 Y5.000 F1500
G1 X23.257 Y5.000 F1500
G1 X23.409 Y5.000 F1500
G1 X23.562 Y5.000 F1500
G1 X23.714 Y5.000 F1500
G1 X23.866 Y5.000 F1500
G1 X24.018 Y5.000 F1500
G1 X24.170 Y5.000 F1500
G1 X24.322 Y5.000 F1500
G1 X24.474 Y5.000 F1500
G1 X24.627 Y5.000 F1500
G1 X24.779 Y5.000 F1500
G1 X24.931 Y5.000 F1500
G1 X25.083 Y5.000 F1500
G1 X25.235 Y5.000 F1500
G1 X25.387 Y5.000 F1500
G1 X25.539 Y5.000 F1500
G1 X25.692 Y5.000 F1500
G1 X25.844 Y5.000 F1500
G1 X25.996 Y5.000 F1500
G1 X26.148 Y5.000 F1500
G1 X26.300 Y5.000 F1500
G1 X26.452 Y5.000 F1500
G1 X26.604 Y5.000 F1500
G1 X26.757 Y5.000 F1500
G1 X26.909 Y5.000 F1500
G1 X27.061 Y5.000 F1500
G1 X27.213 Y5.000 F1500
G1 X27.365 Y5.000 F1500
G1 X27.517 Y5.000 F1500
G1 X27.669 Y5.000 F1500
G1 X27.822 Y5.000 F1500
G1 X27.974 Y5.000 F1500
G1 X28.126 Y5.000 F1500
G1 X28.278 Y5.000 F1500
G1 X28.430 Y5.000 F1500
G1 X28.582 Y5.000 F1500
G1 X28.734 Y5.000 F1500
G1 X28.887 Y5.000 F1500
G1 X29.039 Y5.000 F1500
G1 X29.191 Y5.000 F1500
G1 X29.343 Y5.000 F1500
G1 X29.495 Y5.000 F1500
G1 X29.647 Y5.000 F1500
G1 X29.799 Y5.000 F1500
G1 X29.952 Y5.000 F1500
G1 X30.104 Y5.000 F1500
G1 X30.256 Y5.000 F1500
G1 X30.408 Y5.000 F1500
G1 X30.560 Y5.000 F1500
G1 X30.712 Y5.000 F1500
G1 X30.864 Y5.000 F1500
G1 X31.017 Y5.000 F1500
G1 X31.169 Y5.000 F1500
G1 X31.321 Y5.000 F1500
G1 X31.473 Y5.000 F1500
G1 X31.625 Y5.000 F1500
G1 X31.777 Y5.000 F1500
G1 X31.929 Y5.000 F1500
G1 X32.082 Y5.000 F1500
G1 X32.234 Y5.000 F1500
G1 X32.386 Y5.000 F1500
G1 X32.538 Y5.000 F1500
G1 X32.690 Y5.000 F1500
G1 X32.842 Y5.000 F1500
G1 X32.994 Y5.000 F1500
G1 X33.147 Y5.000 F1500
G1 X33.299 Y5.000 F1500
G1 X33.451 Y5.000 F1500
G1 X33.603 Y5.000 F1500
G1 X33.755 Y5.000 F1500
G1 X33.907 Y5.000 F1500
G1 X34.059 Y5.000 F1500
G1 X34.212 Y5.000 F1500
G1 X34.364 Y5.000 F1500
G1 X34.516 Y5.000 F1500
G1 X34.668 Y5.000 F1500
G1 X34.820 Y5.000 F1500
G1 X34.972 Y5.000 F1500
G1 X35.124 Y5.000 F1500
G1 X35.277 Y5.000 F1500
G1 X35.429 Y5.000 F1500
G1 X35.581 Y5.000 F1500
G1 X35.733 Y5.000 F1500
G1 X35.885 Y5.000 F1500
G1 X36.037 Y5.000 F1500
G1 X36.189 Y5.000 F1500
G1 X36.342 Y5.000 F1500
G1 X36.494 Y5.000 F1500
G1 X36.646 Y5.000 F1500
G1 X36.798 Y5.000 F1500
G1 X36.950 Y5.000 F1500
G1 X37.102 Y5.000 F1500
G1 X37.254 Y5.000 F1500
G1 X37.407 Y5.000 F1500
G1 X37.559 Y5.000 F1500
G1 X37.711 Y5.000 F1500
G1 X37.863 Y5.000 F1500
G1 X38.015 Y5.000 F1500
G1 X38.167 Y5.000 F1500
G1 X38.320 Y5.000 F1500
G1 X38.472 Y5.000 F1500
G1 X38.624 Y5.000 F1500
G1 X38.776 Y5.000 F1500
G1 X38.928 Y5.000 F1500
G1 X39.080 Y5.000 F1500
G1 X39.232 Y5.000 F1500
G1 X39.385 Y5.000 F1500
G1 X39.537 Y5.000 F1500
G1 X39.689 Y5.000 F1500
G1 X39.841 Y5.000 F1500
G1 X39.993 Y5.000 F1500
G1 X40.145 Y5.000 F1500
G1 X40.297 Y5.000 F1500
G1 X40.450 Y5.000 F1500
G1 X40.602 Y5.000 F1500
G1 X40.754 Y5.000 F1500
G1 X40.906 Y5.000 F1500
G1 X41.058 Y5.000 F1500
G1 X41.210 Y5.000 F1500
G1 X41.362 Y5.000 F1500
G1 X41.515 Y5.000 F1500
G1 X41.667 Y5.000 F1500
G1 X41.819 Y5.000 F1500
G1 X41.971 Y5.000 F1500
G1 X42.123 Y5.000 F1500
G1 X42.275 Y5.000 F1500
G1 X42.427 Y5.000 F1500
G1 X42.580 Y5.000 F1500
G1 X42.732 Y5.000 F1500
G1 X42.884 Y5.000 F1500
G1 X43.036 Y5.000 F1500
G1 X43.188 Y5.000 F1500
G1 X43.340 Y5.000 F1500
G1 X43.492 Y5.000 F1500
G1 X43.645 Y5.000 F1500
G1 X43.797 Y5.000 F1500
G1 X43.949 Y5.000 F1500
G1 X44.101 Y5.000 F1500
G1 X44.253 Y5.000 F1500
G1 X44.405 Y5.000 F1500
G1 X44.557 Y5.000 F1500
G1 X44.710 Y5.000 F1500
G1 X44.862 Y5.000 F1500
G1 X45.014 Y5.000 F1500
G1 X45.166 Y5.000 F1500
G1 X45.318 Y5.000 F1500
G1 X45.470 Y5.000 F1500
G1 X45.622 Y5.000 F1500
G1 X45.775 Y5.000 F1500
G1 X45.927 Y5.000 F1500
G1 X46.079 Y5.000 F1500
G1 X46.231 Y5.000 F1500
G1 X46.383 Y5.000 F1500
G1 X46.535 Y5.000 F1500
G1 X46.687 Y5.000 F1500
G1 X46.840 Y5.000 F1500
G1 X46.992 Y5.000 F1500
G1 X47.144 Y5.000 F1500
G1 X47.296 Y5.000 F1500
G1 X47.448 Y5.000 F1500
G1 X47.600 Y5.000 F1500
G1 X47.752 Y5.000 F1500
G1 X47.905 Y5.000 F1500
G1 X48.057 Y5.000 F1500
G1 X48.209 Y5.000 F1500
G1 X48.361 Y5.000 F1500
G1 X48.513 Y5.000 F1500
G1 X48.665 Y5.000 F1500
G1 X48.817 Y5.000 F1500
G1 X48.970 Y5.000 F1500
G1 X49.122 Y5.000 F1500
G1 X49.274 Y5.000 F1500
G1 X49.426 Y5.000 F1500
G1 X49.578 Y5.000 F1500
G1 X49.730 Y5.000 F1500
G1 X49.882 Y5.000 F1500
G1 X50.035 Y5.000 F1500
G1 X50.187 Y5.000 F1500
G1 X50.339 Y5.000 F1500
G1 X50.491 Y5.000 F1500
G1 X50.643 Y5.000 F1500
G1 X50.795 Y5.000 F1500
G1 X50.947 Y5.000 F1500
G1 X51.100 Y5.000 F1500
G1 X51.252 Y5.000 F1500
G1 X51.404 Y5.000 F1500
G1 X51.556 Y5.000 F1500
G1 X51.708 Y5.000 F1500
G1 X51.860 Y5.000 F1500
G1 X52.012 Y5.000 F1500
G1 X52.165 Y5.000 F1500
G1 X52.317 Y5.000 F1500
G1 X52.469 Y5.000 F1500
G1 X52.621 Y5.000 F1500
G1 X52.773 Y5.000 F1500
G1 X52.925 Y5.000 F1500
G1 X53.077 Y5.000 F1500
G1 X53.230 Y5.000 F1500
G1 X53.382 Y5.000 F1500
G1 X53.534 Y5.000 F1500
G1 X53.686 Y5.000 F1500
G1 X53.838 Y5.000 F1500
G1 X53.990 Y5.000 F1500
G1 X54.142 Y5.000 F1500
G1 X54.295 Y5.000 F1500
G1 X54.447 Y5.000 F1500
G1 X54.599 Y5.000 F1500
G1 X54.751 Y5.000 F1500
G1 X54.903 Y5.000 F1500
G1 X55.055 Y5.000 F1500
G1 X55.207 Y5.000 F1500
G1 X55.360 Y5.000 F1500
G1 X55.512 Y5.000 F1500
G1 X55.664 Y5.000 F1500
G1 X55.816 Y5.000 F1500
G1 X55.968 Y5.000 F1500
G1 X56.120 Y5.000 F1500
G1 X56.272 Y5.000 F1500
G1 X56.425 Y5.000 F1500
G1 X56.577 Y5.000 F1500
G1 X56.729 Y5.000 F1500
G1 X56.881 Y5.000 F1500
G1 X57.033 Y5.000 F1500
G1 X57.185 Y5.000 F1500
G1 X57.337 Y5.000 F1500
G1 X57.490 Y5.000 F1500
G1 X57.642 Y5.000 F1500
G1 X57.794 Y5.000 F1500
G1 X57.946 Y5.000 F1500
G1 X58.098 Y5.000 F1500
G1 X58.250 Y5.000 F1500
G1 X58.402 Y5.000 F1500
G1 X58.555 Y5.000 F1500
G1 X58.707 Y5.000 F1500
G1 X58.859 Y5.000 F1500
G1 X59.011 Y5.000 F1500
G1 X59.163 Y5.000 F1500
G1 X59.315 Y5.000 F1500
G1 X59.467 Y5.000 F1500
G1 X59.620 Y5.000 F1500
G1 X59.772 Y5.000 F1500
G1 X59.924 Y5.000 F1500
G1 X60.076 Y5.000 F1500
G1 X60.228 Y5.000 F1500
G1 X60.380 Y5.000 F1500
G1 X60.533 Y5.000 F1500
G1 X60.685 Y5.000 F1500
G1 X60.837 Y5.000 F1500
G1 X60.989 Y5.000 F1500
G1 X61.141 Y5.000 F1500
G1 X61.293 Y5.000 F1500
G1 X61.445 Y5.000 F1500
G1 X61.598 Y5.000 F1500
G1 X61.750 Y5.000 F1500
G1 X61.902 Y5.000 F1500
G1 X62.054 Y5.000 F1500
G1 X62.206 Y5.000 F1500
G1 X62.358 Y5.000 F1500
G1 X62.510 Y5.000 F1500
G1 X62.663 Y5.000 F1500
G1 X62.815 Y5.000 F1500
G1 X62.967 Y5.000 F1500
G1 X63.119 Y5.000 F1500
G1 X63.271 Y5.000 F1500
G1 X63.423 Y5.000 F1500
G1 X63.575 Y5.000 F1500
G1 X63.728 Y5.000 F1500
G1 X63.880 Y5.000 F1500
G1 X64.032 Y5.000 F1500
G1 X64.184 Y5.000 F1500
G1 X64.336 Y5.000 F1500
G1 X64.488 Y5.000 F1500
G1 X64.640 Y5.000 F1500
G1 X64.793 Y5.000 F1500
G1 X64.945 Y5.000 F1500
G1 X65.097 Y5.000 F1500
G1 X65.249 Y5.000 F1500
G1 X65.401 Y5.000 F1500
G1 X65.553 Y5.000 F1500
G1 X65.705 Y5.000 F1500
G1 X65.858 Y5.000 F1500
G1 X66.010 Y5.000 F1500
G1 X66.162 Y5.000 F1500
G1 X66.314 Y5.000 F1500
G1 X66.466 Y5.000 F1500
G1 X66.618 Y5.000 F1500
G1 X66.770 Y5.000 F1500
G1 X66.923 Y5.000 F1500
G1 X67.075 Y5.000 F1500
G1 X67.227 Y5.000 F1500
G1 X67.379 Y5.000 F1500
G1 X67.531 Y5.000 F1500
G1 X67.683 Y5.000 F1500
G1 X67.835 Y5.000 F1500
G1 X67.988 Y5.000 F1500
G1 X68.140 Y5.000 F1500
G1 X68.292 Y5.000 F1500
G1 X68.444 Y5.000 F1500
G1 X68.596 Y5.000 F1500
G1 X68.748 Y5.000 F1500
G1 X68.900 Y5.000 F1500
G1 X69.053 Y5.000 F1500
G1 X69.205 Y5.000 F1500
G1 X69.357 Y5.000 F1500
G1 X69.509 Y5.000 F1500
G1 X69.661 Y5.000 F1500
G1 X69.813 Y5.000 F1500
G1 X69.965 Y5.000 F1500
G1 X70.118 Y5.000 F1500
G1 X70.270 Y5.000 F1500
G1 X70.422 Y5.000 F1500
G1 X70.574 Y5.000 F1500
G1 X70.726 Y5.000 F1500
G1 X70.878 Y5.000 F1500
G1 X71.030 Y5.000 F1500
G1 X71.183 Y5.000 F1500
G1 X71.335 Y5.000 F1500
G1 X71.487 Y5.000 F1500
G1 X71.639 Y5.000 F1500
G1 X71.791 Y5.000 F1500
G1 X71.943 Y5.000 F1500
G1 X72.095 Y5.000 F1500
G1 X72.248 Y5.000 F1500
G1 X72.400 Y5.000 F1500
G1 X72.552 Y5.000 F1500
G1 X72.704 Y5.000 F1500
G1 X72.856 Y5.000 F1500
G1 X73.008 Y5.000 F1500
G1 X73.160 Y5.000 F1500
G1 X73.313 Y5.000 F1500
G1 X73.465 Y5.000 F1500
G1 X73.617 Y5.000 F1500
G1 X73.769 Y5.000 F1500
G1 X73.921 Y5.000 F1500
G1 X74.073 Y5.000 F1500
G1 X74.225 Y5.000 F1500
G1 X74.378 Y5.000 F1500
G1 X74.530 Y5.000 F1500
G1 X74.682 Y5.000 F1500
G1 X74.834 Y5.000 F1500
G1 X74.986 Y5.000 F1500
G1 X75.138 Y5.000 F1500
G1 X75.290 Y5.000 F1500
G1 X75.443 Y5.000 F1500
G1 X75.595 Y5.000 F1500
G1 X75.747 Y5.000 F1500
G1 X75.899 Y5.000 F1500
G1 X76.051 Y5.000 F1500
G1 X76.203 Y5.000 F1500
G1 X76.355 Y5.000 F1500
G1 X76.508 Y5.000 F1500
G1 X76.660 Y5.000 F1500
G1 X76.812 Y5.000 F1500
G1 X76.964 Y5.000 F1500
G1 X77.116 Y5.000 F1500
G1 X77.268 Y5.000 F1500
G1 X77.420 Y5.000 F1500
G1 X77.573 Y5.000 F1500
G1 X77.725 Y5.000 F1500
G1 X77.877 Y5.000 F1500
G1 X78.029 Y5.000 F1500
G1 X78.181 Y5.000 F1500
G1 X78.333 Y5.000 F1500
G1 X78.485 Y5.000 F1500
G1 X78.638 Y5.000 F1500
G1 X78.790 Y5.000 F1500
G1 X78.942 Y5.000 F1500
G1 X79.094 Y5.000 F1500
G1 X79.246 Y5.000 F1500
G1 X79.398 Y5.000 F1500
G1 X79.550 Y5.000 F1500
G1 X79.703 Y5.000 F1500
G1 X79.855 Y5.000 F1500
G1 X80.007 Y5.000 F1500
G1 X80.159 Y5.000 F1500
G1 X80.311 Y5.000 F1500
G1 X80.463 Y5.000 F1500
G1 X80.615 Y5.000 F1500
G1 X80.768 Y5.000 F1500
G1 X80.920 Y5.000 F1500
G1 X81.072 Y5.000 F1500
G1 X81.224 Y5.000 F1500
G1 X81.376 Y5.000 F1500
G1 X81.528 Y5.000 F1500
G1 X81.680 Y5.000 F1500
G1 X81.833 Y5.000 F1500
G1 X81.985 Y5.000 F1500
G1 X82.137 Y5.000 F1500
G1 X82.289 Y5.000 F1500
G1 X82.441 Y5.000 F1500
G1 X82.593 Y5.000 F1500
G1 X82.746 Y5.000 F1500
G1 X82.898 Y5.000 F1500
G1 X83.050 Y5.000 F1500
G1 X83.202 Y5.000 F1500
G1 X83.354 Y5.000 F1500
G1 X83.506 Y5.000 F1500
G1 X83.658 Y5.000 F1500
G1 X83.811 Y5.000 F1500
G1 X83.963 Y5.000 F1500
G1 X84.115 Y5.000 F1500
G1 X84.267 Y5.000 F1500
G1 X84.419 Y5.000 F1500
G1 X84.571 Y5.000 F1500
G1 X84.723 Y5.000 F1500
G1 X84.876 Y5.000 F1500
G1 X85.028 Y5.000 F1500
G1 X85.180 Y5.000 F1500
G1 X85.332 Y5.000 F1500
G1 X85.484 Y5.000 F1500
G1 X85.636 Y5.000 F1500
G1 X85.788 Y5.000 F1500
G1 X85.941 Y5.000 F1500
G1 X86.093 Y5.000 F1500
G1 X86.245 Y5.000 F1500
G1 X86.397 Y5.000 F1500
G1 X86.549 Y5.000 F1500
G1 X86.701 Y5.000 F1500
G1 X86.853 Y5.000 F1500
G1 X87.006 Y5.000 F1500
G1 X87.158 Y5.000 F1500
G1 X87.310 Y5.000 F1500
G1 X87.462 Y5.000 F1500
G1 X87.614 Y5.000 F1500
G1 X87.766 Y5.000 F1500
G1 X87.918 Y5.000 F1500
G1 X88.071 Y5.000 F1500
G1 X88.223 Y5.000 F1500
G1 X88.375 Y5.000 F1500
G1 X88.527 Y5.000 F1500
G1 X88.679 Y5.000 F1500
G1 X88.831 Y5.000 F1500
G1 X88.983 Y5.000 F1500
G1 X89.136 Y5.000 F1500
G1 X89.288 Y5.000 F1500
G1 X89.440 Y5.000 F1500
G1 X89.592 Y5.000 F1500
G1 X89.744 Y5.000 F1500
G1 X89.896 Y5.000 F1500
G1 X90.048 Y5.000 F1500
G1 X90.201 Y5.000 F1500
G1 X90.353 Y5.000 F1500
G1 X90.505 Y5.000 F1500
G1 X90.657 Y5.000 F1500
G1 X90.809 Y5.000 F1500
G1 X90.961 Y5.000 F1500
G1 X91.113 Y5.000 F1500
G1 X91.266 Y5.000 F1500
G1 X91.418 Y5.000 F1500
G1 X91.570 Y5.000 F1500
G1 X91.722 Y5.000 F1500
G1 X91.874 Y5.000 F1500
G1 X92.026 Y5.000 F1500
G1 X92.178 Y5.000 F1500
G1 X92.331 Y5.000 F1500
G1 X92.483 Y5.000 F1500
G1 X92.635 Y5.000 F1500
G1 X92.787 Y5.000 F1500
G1 X92.939 Y5.000 F1500
G1 X93.091 Y5.000 F1500
G1 X93.243 Y5.000 F1500
G1 X93.396 Y5.000 F1500
G1 X93.548 Y5.000 F1500
G1 X93.700 Y5.000 F1500
G1 X93.852 Y5.000 F1500
G1 X94.004 Y5.000 F1500
G1 X94.004 Y5.152 F1500
G1 X94.004 Y5.304 F1500
G1 X94.004 Y5.456 F1500
G1 X94.004 Y5.609 F1500
G1 X94.004 Y5.761 F1500
G1 X94.004 Y5.913 F1500
G1 X93.852 Y5.913 F1500
G1 X93.700 Y6.065 F1500
G1 X93.700 Y6.217 F1500
G1 X93.548 Y6.217 F1500
G1 X93.396 Y6.369 F1500
G1 X93.396 Y6.521 F1500
G1 X93.396 Y6.674 F1500
G1 X93.396 Y6.826 F1500
G1 X93.243 Y6.826 F1500
G1 X93.091 Y6.978 F1500
G1 X93.091 Y7.130 F1500
G1 X92.939 Y7.130 F1500
G1 X92.787 Y7.282 F1500
G1 X92.787 Y7.434 F1500
G1 X92.787 Y7.586 F1500
G1 X92.787 Y7.739 F1500
G1 X92.635 Y7.739 F1500
G1 X92.483 Y7.891 F1500
G1 X92.331 Y7.891 F1500
G1 X92.178 Y8.043 F1500
G1 X92.178 Y8.195 F1500
G1 X92.026 Y8.195 F1500
G1 X91.874 Y8.195 F1500
G1 X91.722 Y8.195 F1500
G1 X91.570 Y8.347 F1500
G1 X91.570 Y8.499 F1500
G1 X91.570 Y8.651 F1500
G1 X91.570 Y8.804 F1500
G1 X91.418 Y8.804 F1500
G1 X91.266 Y8.956 F1500
G1 X91.266 Y9.108 F1500
G1 X91.113 Y9.108 F1500
G1 X90.961 Y9.260 F1500
G1 X90.961 Y9.412 F1500
G1 X90.961 Y9.564 F1500
G1 X90.961 Y9.716 F1500
G1 X91.113 Y9.869 F1500
G1 X91.266 Y9.869 F1500
G1 X91.266 Y10.021 F1500
G1 X91.266 Y10.173 F1500
G1 X91.266 Y10.325 F1500
G1 X91.266 Y10.477 F1500
G1 X91.418 Y10.629 F1500
G1 X91.570 Y10.629 F1500
G1 X91.570 Y10.781 F1500
G1 X91.722 Y10.934 F1500
G1 X91.874 Y10.934 F1500
G1 X91.874 Y11.086 F1500
G1 X92.026 Y11.238 F1500
G1 X92.178 Y11.238 F1500
G1 X92.178 Y11.390 F1500
G1 X92.331 Y11.542 F1500
G1 X92.483 Y11.542 F1500
G1 X92.483 Y11.694 F1500
G1 X92.483 Y11.846 F1500
G1 X92.483 Y11.999 F1500
G1 X92.635 Y12.151 F1500
G1 X92.787 Y12.151 F1500
G1 X92.787 Y12.303 F1500
G1 X92.939 Y12.455 F1500
G1 X93.091 Y12.455 F1500
G1 X93.243 Y12.607 F1500
G1 X93.396 Y12.607 F1500
G1 X93.396 Y12.759 F1500
G1 X93.548 Y12.911 F1500
G1 X93.700 Y12.911 F1500
G1 X93.700 Y13.064 F1500
G1 X93.852 Y13.216 F1500
G1 X94.004 Y13.216 F1500
G1 X94.156 Y13.216 F1500
G1 X94.308 Y13.216 F1500
G1 X94.308 Y13.368 F1500
G1 X94.461 Y13.520 F1500
G1 X94.613 Y13.520 F1500
G1 X94.765 Y13.520 F1500
G1 X94.917 Y13.520 F1500
G1 X94.917 Y13.672 F1500
G1 X95.069 Y13.824 F1500
G1 X95.221 Y13.824 F1500
G1 X95.221 Y13.976 F1500
G1 X95.373 Y14.129 F1500
G1 X95.526 Y14.129 F1500
G1 X95.678 Y14.129 F1500
G1 X95.830 Y14.129 F1500
G1 X95.830 Y14.281 F1500
G1 X95.982 Y14.433 F1500
G1 X96.134 Y14.433 F1500
G1 X96.134 Y14.585 F1500
G1 X96.286 Y14.737 F1500
G1 X96.438 Y14.737 F1500
G1 X96.591 Y14.889 F1500
G1 X96.743 Y14.889 F1500
G1 X96.743 Y15.041 F1500
G1 X96.895 Y15.194 F1500
G1 X97.047 Y15.194 F1500
G1 X97.047 Y15.346 F1500
G1 X97.199 Y15.498 F1500
G1 X97.351 Y15.498 F1500
G1 X97.503 Y15.498 F1500
G1 X97.656 Y15.498 F1500
G1 X97.656 Y15.650 F1500
G1 X97.808 Y15.802 F1500
G1 X97.960 Y15.802 F1500
G1 X97.960 Y15.954 F1500
G1 X98.112 Y16.107 F1500
G1 X98.264 Y16.107 F1500
G1 X98.264 Y16.259 F1500
G1 X98.416 Y16.411 F1500
G1 X98.568 Y16.411 F1500
G1 X98.568 Y16.563 F1500
G1 X98.721 Y16.715 F1500
G1 X98.873 Y16.715 F1500
G1 X99.025 Y16.715 F1500
G1 X99.177 Y16.715 F1500
G1 X99.177 Y16.867 F1500
G1 X99.329 Y17.019 F1500
G1 X99.481 Y17.019 F1500
G1 X99.481 Y17.172 F1500
G1 X99.481 Y17.324 F1500
G1 X99.633 Y17.476 F1500
G1 X99.786 Y17.476 F1500
G1 X99.938 Y17.476 F1500
G1 X100.090 Y17.476 F1500
G1 X100.090 Y17.628 F1500
G1 X100.242 Y17.780 F1500
G1 X100.394 Y17.780 F1500
G1 X100.546 Y17.780 F1500
G1 X100.698 Y17.780 F1500
G1 X100.698 Y17.932 F1500
G1 X100.851 Y18.084 F1500
G1 X101.003 Y18.084 F1500
G1 X101.155 Y18.084 F1500
G1 X101.307 Y18.084 F1500
G1 X101.307 Y18.237 F1500
G1 X101.459 Y18.389 F1500
G1 X101.611 Y18.389 F1500
G1 X101.611 Y18.541 F1500
G1 X101.763 Y18.693 F1500
G1 X101.916 Y18.693 F1500
G1 X101.916 Y18.845 F1500
G1 X102.068 Y18.997 F1500
G1 X102.220 Y18.997 F1500
G1 X102.220 Y19.149 F1500
G1 X102.372 Y19.302 F1500
G1 X102.524 Y19.302 F1500
G1 X102.676 Y19.454 F1500
G1 X102.828 Y19.454 F1500
G1 X102.828 Y19.606 F1500
G1 X102.828 Y19.758 F1500
G1 X102.828 Y19.910 F1500
G1 X102.981 Y20.062 F1500
G1 X103.133 Y20.062 F1500
G1 X103.285 Y20.062 F1500
G1 X103.437 Y20.062 F1500
G1 X103.437 Y20.214 F1500
G1 X103.589 Y20.367 F1500
G1 X103.741 Y20.367 F1500
G1 X103.741 Y20.519 F1500
G1 X103.893 Y20.671 F1500
G1 X104.046 Y20.671 F1500
G1 X104.198 Y20.671 F1500
G1 X104.350 Y20.671 F1500
G1 X104.350 Y20.823 F1500
G1 X104.502 Y20.975 F1500
G1 X104.654 Y20.975 F1500
G1 X104.654 Y21.127 F1500
G1 X104.806 Y21.279 F1500
G1 X104.959 Y21.279 F1500
G1 X104.959 Y21.432 F1500
G1 X105.111 Y21.584 F1500
G1 X105.263 Y21.584 F1500
G1 X105.415 Y21.736 F1500
G1 X105.567 Y21.736 F1500
G1 X105.567 Y21.888 F1500
G1 X105.719 Y22.040 F1500
G1 X105.871 Y22.040 F1500
G1 X105.871 Y22.192 F1500
G1 X106.024 Y22.344 F1500
G1 X106.176 Y22.344 F1500
G1 X106.328 Y22.344 F1500
G1 X106.480 Y22.344 F1500
G1 X106.632 Y22.344 F1500
G1 X106.784 Y22.344 F1500
G1 X106.784 Y22.497 F1500
G1 X106.936 Y22.649 F1500
G1 X107.089 Y22.649 F1500
G1 X107.241 Y22.649 F1500
G1 X107.393 Y22.649 F1500
G1 X107.545 Y22.649 F1500
G1 X107.697 Y22.649 F1500
G1 X107.849 Y22.649 F1500
G1 X108.001 Y22.649 F1500
G1 X108.154 Y22.649 F1500
G1 X108.306 Y22.649 F1500
G1 X108.458 Y22.649 F1500
G1 X108.610 Y22.649 F1500
G1 X108.762 Y22.497 F1500
G1 X108.762 Y22.344 F1500
G1 X108.914 Y22.344 F1500
G1 X109.066 Y22.344 F1500
G1 X109.219 Y22.344 F1500
G1 X109.371 Y22.192 F1500
G1 X109.371 Y22.040 F1500
G1 X109.523 Y22.040 F1500
G1 X109.675 Y21.888 F1500
G1 X109.675 Y21.736 F1500
G1 X109.827 Y21.736 F1500
G1 X109.979 Y21.584 F1500
G1 X109.979 Y21.432 F1500
G1 X109.979 Y21.279 F1500
G1 X110.131 Y21.279 F1500
G1 X110.284 Y21.127 F1500
G1 X110.284 Y20.975 F1500
G1 X110.436 Y20.975 F1500
G1 X110.588 Y20.823 F1500
G1 X110.588 Y20.671 F1500
G1 X110.740 Y20.671 F1500
G1 X110.892 Y20.671 F1500
G1 X111.044 Y20.671 F1500
G1 X111.196 Y20.519 F1500
G1 X111.196 Y20.367 F1500
G1 X111.349 Y20.367 F1500
G1 X111.501 Y20.367 F1500
G1 X111.653 Y20.367 F1500
G1 X111.805 Y20.367 F1500
G1 X111.957 Y20.367 F1500
G1 X111.957 Y20.519 F1500
G1 X112.109 Y20.671 F1500
G1 X112.261 Y20.671 F1500
G1 X112.261 Y20.823 F1500
G1 X112.414 Y20.975 F1500
G1 X112.566 Y20.975 F1500
G1 X112.566 Y21.127 F1500
G1 X112.718 Y21.279 F1500
G1 X112.870 Y21.279 F1500
G1 X112.870 Y21.432 F1500
G1 X112.870 Y21.584 F1500
G1 X112.870 Y21.736 F1500
G1 X112.870 Y21.888 F1500
G1 X112.870 Y22.040 F1500
G1 X112.870 Y22.192 F1500
G1 X112.870 Y22.344 F1500
G1 X112.870 Y22.497 F1500
G1 X112.870 Y22.649 F1500
G1 X112.870 Y22.801 F1500
G1 X112.870 Y22.953 F1500
G1 X112.870 Y23.105 F1500
G1 X112.870 Y23.257 F1500
G1 X112.870 Y23.409 F1500
G1 X112.870 Y23.562 F1500
G1 X112.870 Y23.714 F1500
G1 X112.718 Y23.714 F1500
G1 X112.566 Y23.866 F1500
G1 X112.566 Y24.018 F1500
G1 X112.566 Y24.170 F1500
G1 X112.566 Y24.322 F1500
G1 X112.566 Y24.474 F1500
G1 X112.414 Y24.474 F1500
G1 X112.261 Y24.627 F1500
G1 X112.261 Y24.779 F1500
G1 X112.109 Y24.779 F1500
G1 X111.957 Y24.931 F1500
G1 X111.957 Y25.083 F1500
G1 X111.805 Y25.083 F1500
G1 X111.653 Y25.235 F1500
G1 X111.653 Y25.387 F1500
G1 X111.653 Y25.539 F1500
G1 X111.653 Y25.692 F1500
G1 X111.501 Y25.692 F1500
G1 X111.349 Y25.844 F1500
G1 X111.349 Y25.996 F1500
G1 X111.196 Y25.996 F1500
G1 X111.044 Y26.148 F1500
G1 X111.044 Y26.300 F1500
G1 X111.044 Y26.452 F1500
G1 X110.892 Y26.452 F1500
G1 X110.740 Y26.604 F1500
G1 X110.740 Y26.757 F1500
G1 X110.588 Y26.757 F1500
G1 X110.436 Y26.757 F1500
G1 X110.284 Y26.757 F1500
G1 X110.131 Y26.909 F1500
G1 X110.131 Y27.061 F1500
G1 X110.131 Y27.213 F1500
G1 X110.131 Y27.365 F1500
G1 X109.979 Y27.365 F1500
G1 X109.827 Y27.517 F1500
G1 X109.827 Y27.669 F1500
G1 X109.827 Y27.822 F1500
G1 X109.827 Y27.974 F1500
G1 X109.675 Y27.974 F1500
G1 X109.523 Y28.126 F1500
G1 X109.523 Y28.278 F1500
G1 X109.523 Y28.430 F1500
G1 X109.523 Y28.582 F1500
G1 X109.523 Y28.734 F1500
G1 X109.371 Y28.734 F1500
G1 X109.219 Y28.887 F1500
G1 X109.219 Y29.039 F1500
G1 X109.219 Y29.191 F1500
G1 X109.219 Y29.343 F1500
G1 X109.219 Y29.495 F1500
G1 X109.219 Y29.647 F1500
G1 X109.219 Y29.799 F1500
G1 X109.219 Y29.952 F1500
G1 X109.219 Y30.104 F1500
G1 X109.219 Y30.256 F1500
G1 X109.371 Y30.408 F1500
G1 X109.523 Y30.408 F1500
G1 X109.523 Y30.560 F1500
G1 X109.523 Y30.712 F1500
G1 X109.675 Y30.864 F1500
G1 X109.827 Y30.864 F1500
G1 X109.827 Y31.017 F1500
G1 X109.827 Y31.169 F1500
G1 X109.827 Y31.321 F1500
G1 X109.827 Y31.473 F1500
G1 X109.827 Y31.625 F1500
G1 X109.827 Y31.777 F1500
G1 X109.827 Y31.929 F1500
G1 X109.827 Y32.082 F1500
G1 X109.827 Y32.234 F1500
G1 X109.827 Y32.386 F1500
G1 X109.827 Y32.538 F1500
G1 X109.827 Y32.690 F1500
G1 X109.827 Y32.842 F1500
G1 X109.675 Y32.842 F1500
G1 X109.523 Y32.994 F1500
G1 X109.523 Y33.147 F1500
G1 X109.523 Y33.299 F1500
G1 X109.523 Y33.451 F1500
G1 X109.523 Y33.603 F1500
G1 X109.523 Y33.755 F1500
G1 X109.523 Y33.907 F1500
G1 X109.523 Y34.059 F1500
G1 X109.523 Y34.212 F1500
G1 X109.523 Y34.364 F1500
G1 X109.523 Y34.516 F1500
G1 X109.523 Y34.668 F1500
G1 X109.523 Y34.820 F1500
G1 X109.523 Y34.972 F1500
G1 X109.523 Y35.124 F1500
G1 X109.523 Y35.277 F1500
G1 X109.523 Y35.429 F1500
G1 X109.523 Y35.581 F1500
G1 X109.523 Y35.733 F1500
G1 X109.523 Y35.885 F1500
G1 X109.523 Y36.037 F1500
G1 X109.523 Y36.189 F1500
G1 X109.523 Y36.342 F1500
G1 X109.523 Y36.494 F1500
G1 X109.523 Y36.646 F1500
G1 X109.523 Y36.798 F1500
G1 X109.523 Y36.950 F1500
G1 X109.523 Y37.102 F1500
G1 X109.523 Y37.254 F1500
G1 X109.523 Y37.407 F1500
G1 X109.523 Y37.559 F1500
G1 X109.523 Y37.711 F1500
G1 X109.523 Y37.863 F1500
G1 X109.675 Y38.015 F1500
G1 X109.827 Y38.015 F1500
G1 X109.827 Y38.167 F1500
G1 X109.827 Y38.320 F1500
G1 X109.827 Y38.472 F1500
G1 X109.827 Y38.624 F1500
G1 X109.827 Y38.776 F1500
G1 X109.827 Y38.928 F1500
G1 X109.827 Y39.080 F1500
G1 X109.827 Y39.232 F1500
G1 X109.827 Y39.385 F1500
G1 X109.979 Y39.537 F1500
G1 X110.131 Y39.537 F1500
G1 X110.131 Y39.689 F1500
G1 X110.131 Y39.841 F1500
G1 X110.284 Y39.993 F1500
G1 X110.436 Y39.993 F1500
G1 X110.436 Y40.145 F1500
G1 X110.588 Y40.297 F1500
G1 X110.740 Y40.297 F1500
G1 X110.740 Y40.450 F1500
G1 X110.740 Y40.602 F1500
G1 X110.740 Y40.754 F1500
G1 X110.892 Y40.906 F1500
G1 X111.044 Y40.906 F1500
G1 X111.044 Y41.058 F1500
G1 X111.196 Y41.210 F1500
G1 X111.349 Y41.210 F1500
G1 X111.349 Y41.362 F1500
G1 X111.501 Y41.515 F1500
G1 X111.653 Y41.515 F1500
G1 X111.653 Y41.667 F1500
G1 X111.805 Y41.819 F1500
G1 X111.957 Y41.819 F1500
G1 X111.957 Y41.971 F1500
G1 X111.957 Y42.123 F1500
G1 X112.109 Y42.275 F1500
G1 X112.261 Y42.275 F1500
G1 X112.261 Y42.427 F1500
G1 X112.261 Y42.580 F1500
G1 X112.261 Y42.732 F1500
G1 X112.414 Y42.884 F1500
G1 X112.566 Y42.884 F1500
G1 X112.566 Y43.036 F1500
G1 X112.566 Y43.188 F1500
G1 X112.566 Y43.340 F1500
G1 X112.718 Y43.492 F1500
G1 X112.870 Y43.492 F1500
G1 X112.870 Y43.645 F1500
G1 X113.022 Y43.797 F1500
G1 X113.174 Y43.797 F1500
G1 X113.174 Y43.949 F1500
G1 X113.174 Y44.101 F1500
G1 X113.174 Y44.253 F1500
G1 X113.174 Y44.405 F1500
G1 X113.326 Y44.557 F1500
G1 X113.479 Y44.557 F1500
G1 X113.479 Y44.710 F1500
G1 X113.479 Y44.862 F1500
G1 X113.479 Y45.014 F1500
G1 X113.631 Y45.166 F1500
G1 X113.783 Y45.166 F1500
G1 X113.783 Y45.318 F1500
G1 X113.783 Y45.470 F1500
G1 X113.783 Y45.622 F1500
G1 X113.935 Y45.775 F1500
G1 X114.087 Y45.775 F1500
G1 X114.087 Y45.927 F1500
G1 X114.239 Y46.079 F1500
G1 X114.391 Y46.079 F1500
G1 X114.391 Y46.231 F1500
G1 X114.391 Y46.383 F1500
G1 X114.391 Y46.535 F1500
G1 X114.544 Y46.687 F1500
G1 X114.696 Y46.687 F1500
G1 X114.848 Y46.840 F1500
G1 X115.000 Y46.840 F1500
G1 X115.000 Y46.992 F1500
G1 X115.000 Y47.144 F1500
G1 X115.000 Y47.296 F1500
G1 X115.000 Y47.448 F1500
G1 X115.000 Y47.600 F1500
G1 X114.848 Y47.600 F1500
G1 X114.696 Y47.752 F1500
G1 X114.696 Y47.905 F1500
G1 X114.696 Y48.057 F1500
G1 X114.696 Y48.209 F1500
G1 X114.696 Y48.361 F1500
G1 X114.696 Y48.513 F1500
G1 X114.544 Y48.513 F1500
G1 X114.391 Y48.665 F1500
G1 X114.391 Y48.817 F1500
G1 X114.239 Y48.817 F1500
G1 X114.087 Y48.970 F1500
G1 X113.935 Y48.970 F1500
G1 X113.783 Y49.122 F1500
G1 X113.783 Y49.274 F1500
G1 X113.631 Y49.274 F1500
G1 X113.479 Y49.426 F1500
G1 X113.479 Y49.578 F1500
G1 X113.326 Y49.578 F1500
G1 X113.174 Y49.730 F1500
G1 X113.174 Y49.882 F1500
G1 X113.022 Y49.882 F1500
G1 X112.870 Y49.882 F1500
G1 X112.718 Y49.882 F1500
G1 X112.566 Y50.035 F1500
G1 X112.566 Y50.187 F1500
G1 X112.414 Y50.187 F1500
G1 X112.261 Y50.339 F1500
G1 X112.261 Y50.491 F1500
G1 X112.109 Y50.491 F1500
G1 X111.957 Y50.643 F1500
G1 X111.957 Y50.795 F1500
G1 X111.957 Y50.947 F1500
G1 X111.957 Y51.100 F1500
G1 X111.805 Y51.100 F1500
G1 X111.653 Y51.252 F1500
G1 X111.501 Y51.252 F1500
G1 X111.349 Y51.404 F1500
G1 X111.349 Y51.556 F1500
G1 X111.196 Y51.556 F1500
G1 X111.044 Y51.708 F1500
G1 X111.044 Y51.860 F1500
G1 X110.892 Y51.860 F1500
G1 X110.740 Y52.012 F1500
G1 X110.740 Y52.165 F1500
G1 X110.588 Y52.165 F1500
G1 X110.436 Y52.317 F1500
G1 X110.436 Y52.469 F1500
G1 X110.436 Y52.621 F1500
G1 X110.436 Y52.773 F1500
G1 X110.436 Y52.925 F1500
G1 X110.436 Y53.077 F1500
G1 X110.284 Y53.077 F1500
G1 X110.131 Y53.230 F1500
G1 X110.131 Y53.382 F1500
G1 X110.131 Y53.534 F1500
G1 X110.131 Y53.686 F1500
G1 X110.131 Y53.838 F1500
G1 X110.131 Y53.990 F1500
G1 X110.131 Y54.142 F1500
G1 X110.131 Y54.295 F1500
G1 X110.131 Y54.447 F1500
G1 X110.131 Y54.599 F1500
G1 X110.131 Y54.751 F1500
G1 X110.131 Y54.903 F1500
G1 X110.131 Y55.055 F1500
G1 X110.131 Y55.207 F1500
G1 X110.131 Y55.360 F1500
G1 X110.131 Y55.512 F1500
G1 X110.131 Y55.664 F1500
G1 X110.284 Y55.816 F1500
G1 X110.436 Y55.816 F1500
G1 X110.436 Y55.968 F1500
G1 X110.436 Y56.120 F1500
G1 X110.436 Y56.272 F1500
G1 X110.436 Y56.425 F1500
G1 X110.436 Y56.577 F1500
G1 X110.436 Y56.729 F1500
G1 X110.436 Y56.881 F1500
G1 X110.436 Y57.033 F1500
G1 X110.436 Y57.185 F1500
G1 X110.436 Y57.337 F1500
G1 X110.436 Y57.490 F1500
G1 X110.436 Y57.642 F1500
G1 X110.436 Y57.794 F1500
G1 X110.436 Y57.946 F1500
G1 X110.588 Y58.098 F1500
G1 X110.740 Y58.098 F1500
G1 X110.740 Y58.250 F1500
G1 X110.740 Y58.402 F1500
G1 X110.740 Y58.555 F1500
G1 X110.740 Y58.707 F1500
G1 X110.740 Y58.859 F1500
G1 X110.740 Y59.011 F1500
G1 X110.740 Y59.163 F1500
G1 X110.740 Y59.315 F1500
G1 X110.740 Y59.467 F1500
G1 X110.740 Y59.620 F1500
G1 X110.892 Y59.772 F1500
G1 X111.044 Y59.772 F1500
G1 X111.044 Y59.924 F1500
G1 X111.044 Y60.076 F1500
G1 X111.044 Y60.228 F1500
G1 X111.196 Y60.380 F1500
G1 X111.349 Y60.380 F1500
G1 X111.349 Y60.533 F1500
G1 X111.349 Y60.685 F1500
G1 X111.349 Y60.837 F1500
G1 X111.349 Y60.989 F1500
G1 X111.349 Y61.141 F1500
G1 X111.349 Y61.293 F1500
G1 X111.501 Y61.445 F1500
G1 X111.653 Y61.445 F1500
G1 X111.653 Y61.598 F1500
G1 X111.653 Y61.750 F1500
G1 X111.653 Y61.902 F1500
G1 X111.653 Y62.054 F1500
G1 X111.653 Y62.206 F1500
G1 X111.653 Y62.358 F1500
G1 X111.653 Y62.510 F1500
G1 X111.653 Y62.663 F1500
G1 X111.653 Y62.815 F1500
G1 X111.653 Y62.967 F1500
G1 X111.805 Y63.119 F1500
G1 X111.957 Y63.119 F1500
G1 X111.957 Y63.271 F1500
G1 X111.957 Y63.423 F1500
G1 X111.957 Y63.575 F1500
G1 X111.957 Y63.728 F1500
G1 X111.957 Y63.880 F1500
G1 X111.957 Y64.032 F1500
G1 X111.957 Y64.184 F1500
G1 X112.109 Y64.336 F1500
G1 X112.261 Y64.336 F1500
G1 X112.261 Y64.488 F1500
G1 X112.109 Y64.488 F1500
G1 X111.957 Y64.640 F1500
G1 X111.957 Y64.793 F1500
G1 X111.957 Y64.945 F1500
G1 X111.957 Y65.097 F1500
G1 X111.957 Y65.249 F1500
G1 X111.957 Y65.401 F1500
G1 X111.957 Y65.553 F1500
G1 X111.957 Y65.705 F1500
G1 X111.957 Y65.858 F1500
G1 X111.957 Y66.010 F1500
G1 X111.957 Y66.162 F1500
G1 X111.957 Y66.314 F1500
G1 X111.957 Y66.466 F1500
G1 X111.805 Y66.466 F1500
G1 X111.653 Y66.618 F1500
G1 X111.653 Y66.770 F1500
G1 X111.653 Y66.923 F1500
G1 X111.653 Y67.075 F1500
G1 X111.653 Y67.227 F1500
G1 X111.501 Y67.227 F1500
G1 X111.349 Y67.379 F1500
G1 X111.349 Y67.531 F1500
G1 X111.349 Y67.683 F1500
G1 X111.349 Y67.835 F1500
G1 X111.196 Y67.835 F1500
G1 X111.044 Y67.988 F1500
G1 X111.044 Y68.140 F1500
G1 X111.044 Y68.292 F1500
G1 X111.044 Y68.444 F1500
G1 X111.044 Y68.596 F1500
G1 X111.044 Y68.748 F1500
G1 X110.892 Y68.748 F1500
G1 X110.740 Y68.900 F1500
G1 X110.740 Y69.053 F1500
G1 X110.740 Y69.205 F1500
G1 X110.740 Y69.357 F1500
G1 X110.740 Y69.509 F1500
G1 X110.588 Y69.509 F1500
G1 X110.436 Y69.661 F1500
G1 X110.436 Y69.813 F1500
G1 X110.436 Y69.965 F1500
G1 X110.436 Y70.118 F1500
G1 X110.284 Y70.118 F1500
G1 X110.131 Y70.270 F1500
G1 X110.131 Y70.422 F1500
G1 X110.131 Y70.574 F1500
G1 X110.131 Y70.726 F1500
G1 X109.979 Y70.726 F1500
G1 X109.827 Y70.878 F1500
G1 X109.827 Y71.030 F1500
G1 X109.827 Y71.183 F1500
G1 X109.827 Y71.335 F1500
G1 X109.675 Y71.335 F1500
G1 X109.523 Y71.487 F1500
G1 X109.523 Y71.639 F1500
G1 X109.371 Y71.639 F1500
G1 X109.219 Y71.791 F1500
G1 X109.066 Y71.791 F1500
G1 X108.914 Y71.943 F1500
G1 X108.914 Y72.095 F1500
G1 X108.762 Y72.095 F1500
G1 X108.610 Y72.248 F1500
G1 X108.610 Y72.400 F1500
G1 X108.458 Y72.400 F1500
G1 X108.306 Y72.552 F1500
G1 X108.306 Y72.704 F1500
G1 X108.154 Y72.704 F1500
G1 X108.001 Y72.856 F1500
G1 X108.001 Y73.008 F1500
G1 X107.849 Y73.008 F1500
G1 X107.697 Y73.008 F1500
G1 X107.545 Y73.008 F1500
G1 X107.393 Y73.160 F1500
G1 X107.393 Y73.313 F1500
G1 X107.241 Y73.313 F1500
G1 X107.089 Y73.465 F1500
G1 X107.089 Y73.617 F1500
G1 X106.936 Y73.617 F1500
G1 X106.784 Y73.769 F1500
G1 X106.784 Y73.921 F1500
G1 X106.632 Y73.921 F1500
G1 X106.480 Y74.073 F1500
G1 X106.328 Y74.073 F1500
G1 X106.176 Y74.225 F1500
G1 X106.176 Y74.378 F1500
G1 X106.024 Y74.378 F1500
G1 X105.871 Y74.378 F1500
G1 X105.719 Y74.378 F1500
G1 X105.567 Y74.530 F1500
G1 X105.567 Y74.682 F1500
G1 X105.415 Y74.682 F1500
G1 X105.263 Y74.834 F1500
G1 X105.263 Y74.986 F1500
G1 X105.111 Y74.986 F1500
G1 X104.959 Y74.986 F1500
G1 X104.806 Y74.986 F1500
G1 X104.654 Y75.138 F1500
G1 X104.654 Y75.290 F1500
G1 X104.502 Y75.290 F1500
G1 X104.350 Y75.443 F1500
G1 X104.350 Y75.595 F1500
G1 X104.198 Y75.595 F1500
G1 X104.046 Y75.595 F1500
G1 X103.893 Y75.595 F1500
G1 X103.741 Y75.747 F1500
G1 X103.741 Y75.899 F1500
G1 X103.589 Y75.899 F1500
G1 X103.437 Y76.051 F1500
G1 X103.437 Y76.203 F1500
G1 X103.285 Y76.203 F1500
G1 X103.133 Y76.203 F1500
G1 X102.981 Y76.203 F1500
G1 X102.828 Y76.355 F1500
G1 X102.676 Y76.355 F1500
G1 X102.524 Y76.508 F1500
G1 X102.524 Y76.660 F1500
G1 X102.372 Y76.660 F1500
G1 X102.220 Y76.660 F1500
G1 X102.068 Y76.660 F1500
G1 X101.916 Y76.812 F1500
G1 X101.916 Y76.964 F1500
G1 X101.763 Y76.964 F1500
G1 X101.611 Y76.964 F1500
G1 X101.459 Y76.964 F1500
G1 X101.307 Y77.116 F1500
G1 X101.307 Y77.268 F1500
G1 X101.155 Y77.268 F1500
G1 X101.003 Y77.268 F1500
G1 X100.851 Y77.268 F1500
G1 X100.698 Y77.268 F1500
G1 X100.546 Y77.268 F1500
G1 X100.394 Y77.420 F1500
G1 X100.394 Y77.573 F1500
G1 X100.242 Y77.573 F1500
G1 X100.090 Y77.573 F1500
G1 X99.938 Y77.573 F1500
G1 X99.786 Y77.573 F1500
G1 X99.633 Y77.573 F1500
G1 X99.481 Y77.725 F1500
G1 X99.481 Y77.877 F1500
G1 X99.329 Y77.877 F1500
G1 X99.177 Y77.877 F1500
G1 X99.025 Y77.877 F1500
G1 X98.873 Y78.029 F1500
G1 X98.873 Y78.181 F1500
G1 X98.721 Y78.181 F1500
G1 X98.568 Y78.181 F1500
G1 X98.416 Y78.181 F1500
G1 X98.264 Y78.333 F1500
G1 X98.264 Y78.485 F1500
G1 X98.112 Y78.485 F1500
G1 X97.960 Y78.485 F1500
G1 X97.808 Y78.485 F1500
G1 X97.656 Y78.638 F1500
G1 X97.503 Y78.638 F1500
G1 X97.351 Y78.638 F1500
G1 X97.199 Y78.638 F1500
G1 X97.047 Y78.790 F1500
G1 X97.047 Y78.942 F1500
G1 X96.895 Y78.942 F1500
G1 X96.743 Y79.094 F1500
G1 X96.743 Y79.246 F1500
G1 X96.743 Y79.398 F1500
G1 X96.743 Y79.550 F1500
G1 X96.743 Y79.703 F1500
G1 X96.743 Y79.855 F1500
G1 X96.743 Y80.007 F1500
G1 X96.743 Y80.159 F1500
G1 X96.591 Y80.159 F1500
G1 X96.438 Y80.159 F1500
G1 X96.286 Y80.159 F1500
G1 X96.134 Y80.159 F1500
G1 X95.982 Y80.159 F1500
G1 X95.830 Y80.159 F1500
G1 X95.678 Y80.159 F1500
G1 X95.526 Y80.159 F1500
G1 X95.373 Y80.159 F1500
G1 X95.221 Y80.159 F1500
G1 X95.069 Y80.159 F1500
G1 X94.917 Y80.159 F1500
G1 X94.765 Y80.159 F1500
G1 X94.613 Y80.159 F1500
G1 X94.461 Y80.159 F1500
G1 X94.308 Y80.159 F1500
G1 X94.156 Y80.159 F1500
G1 X94.004 Y80.159 F1500
G1 X93.852 Y80.159 F1500
G1 X93.700 Y80.159 F1500
G1 X93.548 Y80.159 F1500
G1 X93.396 Y80.159 F1500
G1 X93.243 Y80.159 F1500
G1 X93.091 Y80.159 F1500
G1 X92.939 Y80.159 F1500
G1 X92.787 Y80.159 F1500
G1 X92.635 Y80.159 F1500
G1 X92.483 Y80.159 F1500
G1 X92.331 Y80.159 F1500
G1 X92.178 Y80.159 F1500
G1 X92.026 Y80.159 F1500
G1 X91.874 Y80.159 F1500
G1 X91.722 Y80.159 F1500
G1 X91.570 Y80.159 F1500
G1 X91.418 Y80.159 F1500
G1 X91.266 Y80.159 F1500
G1 X91.113 Y80.159 F1500
G1 X90.961 Y80.159 F1500
G1 X90.809 Y80.159 F1500
G1 X90.657 Y80.159 F1500
G1 X90.505 Y80.159 F1500
G1 X90.353 Y80.159 F1500
G1 X90.201 Y80.159 F1500
G1 X90.048 Y80.159 F1500
G1 X89.896 Y80.159 F1500
G1 X89.744 Y80.159 F1500
G1 X89.592 Y80.159 F1500
G1 X89.440 Y80.159 F1500
G1 X89.288 Y80.159 F1500
G1 X89.136 Y80.159 F1500
G1 X88.983 Y80.159 F1500
G1 X88.831 Y80.159 F1500
G1 X88.679 Y80.159 F1500
G1 X88.527 Y80.159 F1500
G1 X88.375 Y80.159 F1500
G1 X88.223 Y80.159 F1500
G1 X88.071 Y80.159 F1500
G1 X87.918 Y80.159 F1500
G1 X87.766 Y80.159 F1500
G1 X87.614 Y80.159 F1500
G1 X87.462 Y80.159 F1500
G1 X87.310 Y80.159 F1500
G1 X87.158 Y80.159 F1500
G1 X87.006 Y80.159 F1500
G1 X86.853 Y80.159 F1500
G1 X86.701 Y80.159 F1500
G1 X86.549 Y80.159 F1500
G1 X86.397 Y80.159 F1500
G1 X86.245 Y80.159 F1500
G1 X86.093 Y80.159 F1500
G1 X85.941 Y80.159 F1500
G1 X85.788 Y80.159 F1500
G1 X85.636 Y80.159 F1500
G1 X85.484 Y80.159 F1500
G1 X85.332 Y80.159 F1500
G1 X85.180 Y80.159 F1500
G1 X85.028 Y80.159 F1500
G1 X84.876 Y80.159 F1500
G1 X84.723 Y80.159 F1500
G1 X84.571 Y80.159 F1500
G1 X84.419 Y80.159 F1500
G1 X84.267 Y80.159 F1500
G1 X84.115 Y80.159 F1500
G1 X83.963 Y80.159 F1500
G1 X83.811 Y80.159 F1500
G1 X83.658 Y80.159 F1500
G1 X83.506 Y80.159 F1500
G1 X83.354 Y80.159 F1500
G1 X83.202 Y80.159 F1500
G1 X83.050 Y80.159 F1500
G1 X82.898 Y80.159 F1500
G1 X82.746 Y80.159 F1500
G1 X82.593 Y80.159 F1500
G1 X82.441 Y80.159 F1500
G1 X82.289 Y80.159 F1500
G1 X82.137 Y80.159 F1500
G1 X81.985 Y80.159 F1500
G1 X81.833 Y80.159 F1500
G1 X81.680 Y80.159 F1500
G1 X81.528 Y80.159 F1500
G1 X81.376 Y80.159 F1500
G1 X81.224 Y80.159 F1500
G1 X81.072 Y80.159 F1500
G1 X80.920 Y80.159 F1500
G1 X80.768 Y80.159 F1500
G1 X80.615 Y80.159 F1500
G1 X80.463 Y80.159 F1500
G1 X80.311 Y80.159 F1500
G1 X80.159 Y80.159 F1500
G1 X80.007 Y80.159 F1500
G1 X79.855 Y80.159 F1500
G1 X79.703 Y80.159 F1500
G1 X79.550 Y80.159 F1500
G1 X79.398 Y80.159 F1500
G0 Z5.000 F800 ; pen up
G0 Z5.000 F800 ; pen up
G0 X0.000 Y0.000 F3000 ; return to origin
M2 ; end program
