; Generated from SVG by svg_to_gcode.py
G21 ; set units to millimeters
G90 ; absolute positioning
G0 Z5.000 F800 ; pen up
G0 X45.803 Y133.134 F3000
G1 Z0.000 F800 ; pen down
G1 X45.564 Y132.419 F1500
G1 X45.325 Y131.941 F1500
G1 X44.848 Y131.226 F1500G1 X44.610 Y130.510 F1500
G1 X44.371 Y129.794 F1500
G1 X44.132 Y129.317 F1500
G1 X43.655 Y128.601 F1500
G1 X43.416 Y127.885 F1500
G1 X43.178 Y127.169 F1500
G1 X43.178 Y126.453 F1500
G1 X42.939 Y125.738 F1500
G1 X42.701 Y125.022 F1500
G1 X42.462 Y124.544 F1500
G1 X42.462 Y123.829 F1500
G1 X42.223 Y123.113 F1500
G1 X41.985 Y122.397 F1500
G1 X41.985 Y121.681 F1500
G1 X41.985 Y120.965 F1500
G1 X41.985 Y120.249 F1500
G1 X41.985 Y119.534 F1500
G1 X41.746 Y118.818 F1500
G1 X41.746 Y118.102 F1500
G1 X41.746 Y117.386 F1500
G1 X41.746 Y116.670 F1500
G1 X41.746 Y115.954 F1500
G1 X41.746 Y115.239 F1500
G1 X41.985 Y114.523 F1500
G1 X41.985 Y113.807 F1500
G1 X42.223 Y113.091 F1500
G1 X42.223 Y112.375 F1500
G1 X42.223 Y111.659 F1500
G1 X42.462 Y110.944 F1500
G1 X42.462 Y110.228 F1500
G1 X42.701 Y109.512 F1500
G1 X42.701 Y108.796 F1500
G1 X42.939 Y108.080 F1500
G1 X43.178 Y107.364 F1500
G1 X43.178 Y106.649 F1500
G1 X43.416 Y105.933 F1500
G1 X43.655 Y105.456 F1500
G1 X43.894 Y104.740 F1500
G1 X43.894 Y104.024 F1500
G1 X44.132 Y103.308 F1500
G1 X44.371 Y102.592 F1500
G1 X44.610 Y101.876 F1500
G1 X44.610 Y101.161 F1500
G1 X44.610 Y100.445 F1500
G1 X44.610 Y99.729 F1500
G1 X44.610 Y99.013 F1500
G1 X44.610 Y98.297 F1500
G1 X44.371 Y97.581 F1500
G1 X44.371 Y96.866 F1500
G1 X44.371 Y96.150 F1500
G1 X44.371 Y95.434 F1500
G1 X44.371 Y94.718 F1500
G1 X44.132 Y94.002 F1500
G1 X43.655 Y93.525 F1500
G1 X43.416 Y92.809 F1500
G1 X43.178 Y92.093 F1500
G1 X42.939 Y91.377 F1500
G1 X42.701 Y90.662 F1500
G1 X42.462 Y90.184 F1500
G1 X42.223 Y89.469 F1500
G1 X41.746 Y88.753 F1500
G1 X41.269 Y88.275 F1500
G1 X40.792 Y87.798 F1500
G1 X40.315 Y87.082 F1500
G1 X39.837 Y86.605 F1500
G1 X39.360 Y86.128 F1500
G1 X38.883 Y85.651 F1500
G1 X38.644 Y84.935 F1500
G1 X38.167 Y84.458 F1500
G1 X37.690 Y83.980 F1500
G1 X36.974 Y83.503 F1500
G1 X36.497 Y83.026 F1500
G1 X35.781 Y82.787 F1500
G1 X35.304 Y82.310 F1500
G1 X34.588 Y82.072 F1500
G1 X34.111 Y81.594 F1500
G1 X33.395 Y81.117 F1500
G1 X32.679 Y80.879 F1500
G1 X32.202 Y80.401 F1500
G1 X31.486 Y80.163 F1500
G1 X31.009 Y79.685 F1500
G1 X30.293 Y79.447 F1500
G1 X29.816 Y78.970 F1500
G1 X29.338 Y78.254 F1500
G1 X28.861 Y77.777 F1500
G1 X28.384 Y77.299 F1500
G1 X27.907 Y76.822 F1500
G1 X27.430 Y76.106 F1500
G1 X26.952 Y75.629 F1500
G1 X26.475 Y75.152 F1500
G1 X25.998 Y74.675 F1500
G1 X25.521 Y73.959 F1500
G1 X25.043 Y73.482 F1500
G1 X24.566 Y73.004 F1500
G1 X24.089 Y72.527 F1500
G1 X23.612 Y71.811 F1500
G1 X23.134 Y71.334 F1500
G1 X22.896 Y70.618 F1500
G1 X22.419 Y70.141 F1500
G1 X22.180 Y69.425 F1500
G1 X21.703 Y68.948 F1500
G1 X21.464 Y68.232 F1500
G1 X20.987 Y67.755 F1500
G1 X20.748 Y67.039 F1500
G1 X20.271 Y66.323 F1500
G1 X19.794 Y65.846 F1500
G1 X19.555 Y65.130 F1500
G1 X19.078 Y64.653 F1500
G1 X18.839 Y63.937 F1500
G1 X18.362 Y63.460 F1500
G1 X18.124 Y62.744 F1500
G1 X17.646 Y62.028 F1500
G1 X17.408 Y61.551 F1500
G1 X16.931 Y60.835 F1500
G1 X16.692 Y60.119 F1500
G1 X16.453 Y59.642 F1500
G1 X15.976 Y58.926 F1500
G1 X15.738 Y58.210 F1500
G1 X15.499 Y57.733 F1500
G1 X15.260 Y57.017 F1500
G1 X14.783 Y56.302 F1500
G1 X14.544 Y55.586 F1500
G1 X14.306 Y55.108 F1500
G1 X14.067 Y54.393 F1500
G1 X13.829 Y53.677 F1500
G1 X13.351 Y52.961 F1500
G1 X13.113 Y52.484 F1500
G1 X12.874 Y51.768 F1500
G1 X12.636 Y51.052 F1500
G1 X12.158 Y50.336 F1500
G1 X11.920 Y49.859 F1500
G1 X11.681 Y49.143 F1500
G1 X11.443 Y48.427 F1500
G1 X11.204 Y47.711 F1500
G1 X10.727 Y47.234 F1500
G1 X10.488 Y46.518 F1500
G1 X10.249 Y45.803 F1500
G1 X10.011 Y45.087 F1500
G1 X9.772 Y44.371 F1500
G1 X9.534 Y43.655 F1500
G1 X9.295 Y43.178 F1500
G1 X9.056 Y42.462 F1500
G1 X8.818 Y41.746 F1500
G1 X8.579 Y41.030 F1500
G1 X8.341 Y40.315 F1500
G1 X8.341 Y39.599 F1500
G1 X8.102 Y39.121 F1500
G1 X7.863 Y38.406 F1500
G1 X7.625 Y37.690 F1500
G1 X7.386 Y36.974 F1500
G1 X7.148 Y36.258 F1500
G1 X6.909 Y35.542 F1500
G1 X6.670 Y35.065 F1500
G1 X6.432 Y34.349 F1500
G1 X6.193 Y33.633 F1500
G1 X5.954 Y32.918 F1500
G1 X5.716 Y32.202 F1500
G1 X5.477 Y31.486 F1500
G1 X5.239 Y31.009 F1500
G1 X5.000 Y30.293 F1500
G1 X5.239 Y29.577 F1500
G1 X5.477 Y28.861 F1500
G1 X5.477 Y28.145 F1500
G1 X5.716 Y27.430 F1500
G1 X5.954 Y26.714 F1500
G1 X6.193 Y25.998 F1500
G1 X6.193 Y25.282 F1500
G1 X6.432 Y24.566 F1500
G1 X6.670 Y24.089 F1500
G1 X6.909 Y23.373 F1500
G1 X7.148 Y22.657 F1500
G1 X7.148 Y21.941 F1500
G1 X7.386 Y21.226 F1500
G1 X7.625 Y20.510 F1500
G1 X7.863 Y19.794 F1500
G1 X7.863 Y19.078 F1500
G1 X8.102 Y18.362 F1500
G1 X8.341 Y17.646 F1500
G1 X8.818 Y17.408 F1500
G1 X9.534 Y16.931 F1500
G1 X10.011 Y16.453 F1500
G1 X10.727 Y16.215 F1500
G1 X11.204 Y15.738 F1500
G1 X11.920 Y15.260 F1500
G1 X12.397 Y15.022 F1500
G1 X13.113 Y14.544 F1500
G1 X13.590 Y14.306 F1500
G1 X14.306 Y13.829 F1500
G1 X14.783 Y13.351 F1500
G1 X15.499 Y13.113 F1500
G1 X15.976 Y12.636 F1500
G1 X16.692 Y12.158 F1500
G1 X17.169 Y11.920 F1500
G1 X17.885 Y11.443 F1500
G1 X18.362 Y10.965 F1500
G1 X19.078 Y10.727 F1500
G1 X19.794 Y10.249 F1500
G1 X20.271 Y10.011 F1500
G1 X20.987 Y9.534 F1500
G1 X21.464 Y9.295 F1500
G1 X22.180 Y9.056 F1500
G1 X22.896 Y9.056 F1500
G1 X23.612 Y8.818 F1500
G1 X24.328 Y8.579 F1500
G1 X25.043 Y8.579 F1500
G1 X25.759 Y8.341 F1500
G1 X26.475 Y8.341 F1500
G1 X27.191 Y8.102 F1500
G1 X27.907 Y8.102 F1500
G1 X28.623 Y7.863 F1500
G1 X29.338 Y7.625 F1500
G1 X30.054 Y7.625 F1500
G1 X30.770 Y7.386 F1500
G1 X31.486 Y7.386 F1500
G1 X32.202 Y7.148 F1500
G1 X32.679 Y7.148 F1500
G1 X33.395 Y6.909 F1500
G1 X34.111 Y6.670 F1500
G1 X34.826 Y6.670 F1500
G1 X35.542 Y6.432 F1500
G1 X36.258 Y6.432 F1500
G1 X36.974 Y6.193 F1500
G1 X37.690 Y6.193 F1500
G1 X38.406 Y5.954 F1500
G1 X39.121 Y5.716 F1500
G1 X39.837 Y5.716 F1500
G1 X40.553 Y5.477 F1500
G1 X41.269 Y5.477 F1500
G1 X41.985 Y5.239 F1500
G1 X42.701 Y5.239 F1500
G1 X43.416 Y5.000 F1500
G1 X44.132 Y5.000 F1500
G1 X44.848 Y5.000 F1500
G1 X45.564 Y5.000 F1500
G1 X46.280 Y5.000 F1500
G1 X46.996 Y5.000 F1500
G1 X47.711 Y5.000 F1500
G1 X48.427 Y5.000 F1500
G1 X49.143 Y5.000 F1500
G1 X49.859 Y5.000 F1500
G1 X50.575 Y5.000 F1500
G1 X51.291 Y5.000 F1500
G1 X52.007 Y5.000 F1500
G1 X52.722 Y5.000 F1500
G1 X53.438 Y5.000 F1500
G1 X54.154 Y5.000 F1500
G1 X54.870 Y5.000 F1500
G1 X55.586 Y5.000 F1500
G1 X56.302 Y5.000 F1500
G1 X57.017 Y5.000 F1500
G1 X57.733 Y5.000 F1500
G1 X58.449 Y5.000 F1500
G1 X59.165 Y5.000 F1500
G1 X59.881 Y5.000 F1500
G1 X60.597 Y5.000 F1500
G1 X61.312 Y5.000 F1500
G1 X62.028 Y5.000 F1500
G1 X62.744 Y5.000 F1500
G1 X63.460 Y5.000 F1500
G1 X64.176 Y5.000 F1500
G1 X64.892 Y5.000 F1500
G1 X65.607 Y5.000 F1500
G1 X66.323 Y5.000 F1500
G1 X67.039 Y5.000 F1500
G1 X67.755 Y5.000 F1500
G1 X68.471 Y5.000 F1500
G1 X69.187 Y5.000 F1500
G1 X69.902 Y5.000 F1500
G1 X70.618 Y5.000 F1500
G1 X71.334 Y5.000 F1500
G1 X72.050 Y5.000 F1500
G1 X72.766 Y5.000 F1500
G1 X73.482 Y5.000 F1500
G1 X74.197 Y5.000 F1500
G1 X74.913 Y5.000 F1500
G1 X75.629 Y5.239 F1500
G1 X76.345 Y5.239 F1500
G1 X77.061 Y5.477 F1500
G1 X77.777 Y5.477 F1500
G1 X78.492 Y5.716 F1500
G1 X79.208 Y5.954 F1500
G1 X79.685 Y5.954 F1500
G1 X80.401 Y6.193 F1500
G1 X81.117 Y6.193 F1500
G1 X81.833 Y6.432 F1500
G1 X82.549 Y6.432 F1500
G1 X83.265 Y6.670 F1500
G1 X83.980 Y6.670 F1500
G1 X84.696 Y6.909 F1500
G1 X85.412 Y7.148 F1500
G1 X86.128 Y7.148 F1500
G1 X86.844 Y7.386 F1500
G1 X87.560 Y7.386 F1500
G1 X88.275 Y7.625 F1500
G1 X88.991 Y7.625 F1500
G1 X89.707 Y7.863 F1500
G1 X90.423 Y8.102 F1500
G1 X91.139 Y8.102 F1500
G1 X91.855 Y8.341 F1500
G1 X92.570 Y8.341 F1500
G1 X93.286 Y8.579 F1500
G1 X93.764 Y8.579 F1500
G1 X94.479 Y8.818 F1500
G1 X95.195 Y9.056 F1500
G1 X95.911 Y9.056 F1500
G1 X96.627 Y9.295 F1500
G1 X97.343 Y9.534 F1500
G1 X98.059 Y9.772 F1500
G1 X98.536 Y10.249 F1500
G1 X99.252 Y10.727 F1500
G1 X99.729 Y10.965 F1500
G1 X100.445 Y11.443 F1500
G1 X100.922 Y11.681 F1500
G1 X101.638 Y12.158 F1500
G1 X102.115 Y12.636 F1500
G1 X102.831 Y12.874 F1500
G1 X103.308 Y13.351 F1500
G1 X104.024 Y13.829 F1500
G1 X104.501 Y14.067 F1500
G1 X105.217 Y14.544 F1500
G1 X105.694 Y14.783 F1500
G1 X106.410 Y15.260 F1500
G1 X106.887 Y15.738 F1500
G1 X107.603 Y15.976 F1500
G1 X108.319 Y16.453 F1500
G1 X108.796 Y16.931 F1500
G1 X109.512 Y17.169 F1500
G1 X109.989 Y17.646 F1500
G1 X110.466 Y18.124 F1500
G1 X110.705 Y18.839 F1500
G1 X110.944 Y19.317 F1500
G1 X111.182 Y20.033 F1500
G1 X111.421 Y20.748 F1500
G1 X111.659 Y21.464 F1500
G1 X111.898 Y22.180 F1500
G1 X112.137 Y22.896 F1500
G1 X112.375 Y23.373 F1500
G1 X112.614 Y24.089 F1500
G1 X112.852 Y24.805 F1500
G1 X113.091 Y25.521 F1500
G1 X113.330 Y26.236 F1500
G1 X113.568 Y26.952 F1500
G1 X113.807 Y27.430 F1500
G1 X114.046 Y28.145 F1500
G1 X114.284 Y28.861 F1500
G1 X114.523 Y29.577 F1500
G1 X114.761 Y30.293 F1500
G1 X115.000 Y31.009 F1500
G1 X114.761 Y31.486 F1500
G1 X114.523 Y32.202 F1500
G1 X114.284 Y32.918 F1500
G1 X114.284 Y33.633 F1500
G1 X114.046 Y34.349 F1500
G1 X113.807 Y35.065 F1500
G1 X113.568 Y35.781 F1500
G1 X113.330 Y36.497 F1500
G1 X113.330 Y37.213 F1500
G1 X113.091 Y37.690 F1500
G1 X112.852 Y38.406 F1500
G1 X112.614 Y39.121 F1500
G1 X112.375 Y39.837 F1500
G1 X112.375 Y40.553 F1500
G1 X112.137 Y41.269 F1500
G1 X111.898 Y41.985 F1500
G1 X111.659 Y42.701 F1500
G1 X111.421 Y43.416 F1500
G1 X111.421 Y44.132 F1500
G1 X111.182 Y44.610 F1500
G1 X110.944 Y45.325 F1500
G1 X110.705 Y46.041 F1500
G1 X110.466 Y46.757 F1500
G1 X110.466 Y47.473 F1500
G1 X110.228 Y48.189 F1500
G1 X109.989 Y48.905 F1500
G1 X109.751 Y49.382 F1500
G1 X109.512 Y50.098 F1500
G1 X109.035 Y50.813 F1500
G1 X108.796 Y51.529 F1500
G1 X108.557 Y52.245 F1500
G1 X108.319 Y52.961 F1500
G1 X108.080 Y53.438 F1500
G1 X107.842 Y54.154 F1500
G1 X107.603 Y54.870 F1500
G1 X107.364 Y55.586 F1500
G1 X107.126 Y56.302 F1500
G1 X106.887 Y56.779 F1500
G1 X106.649 Y57.495 F1500
G1 X106.410 Y58.210 F1500
G1 X106.171 Y58.926 F1500
G1 X105.933 Y59.642 F1500
G1 X105.694 Y60.119 F1500
G1 X105.456 Y60.835 F1500
G1 X105.217 Y61.551 F1500
G1 X104.978 Y62.267 F1500
G1 X104.501 Y62.983 F1500
G1 X104.262 Y63.460 F1500
G1 X103.785 Y64.176 F1500
G1 X103.547 Y64.653 F1500
G1 X103.069 Y65.369 F1500
G1 X102.831 Y66.085 F1500
G1 X102.592 Y66.562 F1500
G1 X102.115 Y67.278 F1500
G1 X101.876 Y67.993 F1500
G1 X101.399 Y68.471 F1500
G1 X101.161 Y69.187 F1500
G1 X100.922 Y69.902 F1500
G1 X100.445 Y70.380 F1500
G1 X100.206 Y71.095 F1500
G1 X99.729 Y71.811 F1500
G1 X99.490 Y72.289 F1500
G1 X99.013 Y73.004 F1500
G1 X98.536 Y73.482 F1500
G1 X98.297 Y74.197 F1500
G1 X97.820 Y74.675 F1500
G1 X97.343 Y75.152 F1500
G1 X96.866 Y75.868 F1500
G1 X96.388 Y76.345 F1500
G1 X95.911 Y76.822 F1500
G1 X95.434 Y77.538 F1500
G1 X95.195 Y78.015 F1500
G1 X94.718 Y78.492 F1500
G1 X94.241 Y79.208 F1500
G1 X93.764 Y79.685 F1500
G1 X93.286 Y80.163 F1500
G1 X92.809 Y80.879 F1500
G1 X92.332 Y81.117 F1500
G1 X91.616 Y81.594 F1500
G1 X90.900 Y81.833 F1500
G1 X90.423 Y82.310 F1500
G1 X89.707 Y82.787 F1500
G1 X89.230 Y83.026 F1500
G1 X88.514 Y83.503 F1500
G1 X88.037 Y83.742 F1500
G1 X87.321 Y84.219 F1500
G1 X86.844 Y84.696 F1500
G1 X86.128 Y84.935 F1500
G1 X85.651 Y85.412 F1500
G1 X85.174 Y86.128 F1500
G1 X84.696 Y86.605 F1500
G1 X84.219 Y87.082 F1500
G1 X83.742 Y87.798 F1500
G1 X83.503 Y88.275 F1500
G1 X83.026 Y88.753 F1500
G1 X82.549 Y89.469 F1500
G1 X82.072 Y89.946 F1500
G1 X81.594 Y90.423 F1500
G1 X81.117 Y91.139 F1500
G1 X80.879 Y91.616 F1500
G1 X80.401 Y92.332 F1500
G1 X80.163 Y93.048 F1500
G1 X79.924 Y93.525 F1500
G1 X79.685 Y94.241 F1500
G1 X79.208 Y94.957 F1500
G1 X78.970 Y95.672 F1500
G1 X78.731 Y96.150 F1500
G1 X78.492 Y96.866 F1500
G1 X78.254 Y97.581 F1500
G1 X77.777 Y98.297 F1500
G1 X77.538 Y98.774 F1500
G1 X77.538 Y99.490 F1500
G1 X77.299 Y100.206 F1500
G1 X77.299 Y100.922 F1500
G1 X77.061 Y101.638 F1500
G1 X77.061 Y102.354 F1500
G1 X76.822 Y103.069 F1500
G1 X76.822 Y103.785 F1500
G1 X76.584 Y104.501 F1500
G1 X76.584 Y105.217 F1500
G1 X76.345 Y105.933 F1500
G1 X76.345 Y106.649 F1500
G1 X76.106 Y107.364 F1500
G1 X76.106 Y108.080 F1500
G1 X76.106 Y108.796 F1500
G1 X76.106 Y109.512 F1500
G1 X76.106 Y110.228 F1500
G1 X76.345 Y110.944 F1500
G1 X76.345 Y111.659 F1500
G1 X76.345 Y112.375 F1500
G1 X76.345 Y113.091 F1500
G1 X76.345 Y113.807 F1500
G1 X76.345 Y114.523 F1500
G1 X76.345 Y115.239 F1500
G1 X76.345 Y115.954 F1500
G1 X76.584 Y116.670 F1500
G1 X76.584 Y117.386 F1500
G1 X76.584 Y118.102 F1500
G1 X76.584 Y118.818 F1500
G1 X76.345 Y119.534 F1500
G1 X76.345 Y120.249 F1500
G1 X76.106 Y120.965 F1500
G1 X76.106 Y121.681 F1500
G1 X75.868 Y122.397 F1500
G1 X75.868 Y123.113 F1500
G1 X75.629 Y123.829 F1500
G1 X75.629 Y124.544 F1500
G1 X75.390 Y125.260 F1500
G1 X75.390 Y125.738 F1500
G1 X75.152 Y126.453 F1500
G1 X74.913 Y127.169 F1500
G1 X74.675 Y127.885 F1500
G1 X74.197 Y128.601 F1500
G1 X73.959 Y129.078 F1500
G1 X73.720 Y129.794 F1500
G1 X73.243 Y130.271 F1500
G1 X73.004 Y130.987 F1500
G1 X72.527 Y131.703 F1500
G1 X72.289 Y132.180 F1500
G1 X72.050 Y132.896 F1500
G1 X71.334 Y133.373 F1500
G1 X70.857 Y133.850 F1500
G1 X70.380 Y134.328 F1500
G1 X69.664 Y134.805 F1500
G1 X69.187 Y135.043 F1500
G1 X68.709 Y135.521 F1500
G1 X67.993 Y135.998 F1500
G1 X67.516 Y136.475 F1500
G1 X66.800 Y136.952 F1500
G1 X66.085 Y137.191 F1500
G1 X65.607 Y137.191 F1500
G1 X64.892 Y137.430 F1500
G1 X64.176 Y137.430 F1500
G1 X63.460 Y137.668 F1500
G1 X62.744 Y137.907 F1500
G1 X62.028 Y137.907 F1500
G1 X61.312 Y138.145 F1500
G1 X60.597 Y138.145 F1500
G1 X59.881 Y138.384 F1500
G1 X59.165 Y138.384 F1500
G1 X58.449 Y138.384 F1500
G1 X57.733 Y138.384 F1500
G1 X57.017 Y138.384 F1500
G1 X56.302 Y138.384 F1500
G1 X55.586 Y138.384 F1500
G1 X54.870 Y138.384 F1500
G1 X54.154 Y138.384 F1500
G1 X53.438 Y138.145 F1500
G1 X52.722 Y137.907 F1500
G1 X52.245 Y137.668 F1500
G1 X51.529 Y137.430 F1500
G1 X50.813 Y136.952 F1500
G1 X50.098 Y136.714 F1500
G1 X49.382 Y136.475 F1500
G1 X48.905 Y135.998 F1500
G1 X48.427 Y135.521 F1500
G1 X47.950 Y135.043 F1500
G1 X47.473 Y134.566 F1500
G1 X46.757 Y134.089 F1500
G1 X46.280 Y133.612 F1500
G0 Z5.000 F800 ; pen up
G0 Z5.000 F800 ; pen up
G0 X0.000 Y0.000 F3000 ; return to origin
M2 ; end program
